[
  {
    "name": "Le Rousseau",
    "street": "3 rue Jean-Jacques-Rousseau",
    "city": " Grenoble",
    "postal_code": " 38000",
    "state": " France3 rue Jean-Jacques-Rousseau",
    "experience": "Assez confortable",
    "tel": "+33 4 76 14 86 75",
    "web_link": "http://www.restaurantlerousseau.fr"
  },
  {
    "name": "Les 3 Faisans",
    "street": "330 rue des Auberges",
    "city": " Saint-Savin",
    "postal_code": " 38300",
    "state": " France330 rue des Auberges",
    "experience": "Confortable",
    "tel": "+33 4 74 28 92 57",
    "web_link": "http://www.les3faisans.fr"
  },
  {
    "name": "La Table du Sommelier",
    "street": "20 rue Porta",
    "city": " Albi",
    "postal_code": " 81000",
    "state": " France20 rue Porta",
    "experience": "Assez confortable",
    "tel": "+33 5 63 46 20 10",
    "web_link": "http://www.latabledusommelier.com"
  },
  {
    "name": "Au Bouchon Breton",
    "street": "20 rue du Maréchal-Leclerc",
    "city": " Dinard",
    "postal_code": " 35800",
    "state": " France20 rue du Maréchal-Leclerc",
    "experience": "Assez confortable",
    "tel": "+33 2 99 46 85 95",
    "web_link": "http://www.au-bouchon-breton.com"
  },
  {
    "name": "Les Jardins du Léman",
    "street": "Grande-Rue",
    "city": " Yvoire",
    "postal_code": " 74140",
    "state": " FranceGrande-Rue",
    "experience": "Confortable",
    "tel": "+33 4 50 72 80 32",
    "web_link": "http://www.lesjardinsduleman.com"
  },
  {
    "name": "La Maison de Marie",
    "street": "24 rue Gabriel-Vicaire",
    "city": " Perros-Guirec",
    "postal_code": " 22700",
    "state": " France24 rue Gabriel-Vicaire",
    "experience": "Confortable",
    "tel": "+33 2 96 49 05 96",
    "web_link": "http://www.lamaisondemarie-laclarte.bzh"
  },
  {
    "name": "Auberge de la Clue",
    "street": "place de l'Église",
    "city": " Plaisians",
    "postal_code": " 26170",
    "state": " Franceplace de l'Église",
    "experience": "Assez confortable",
    "tel": "+33 4 75 28 01 17",
    "web_link": "https://www.instagram.com/explore/tags/yesmichelinguide/"
  },
  {
    "name": "La Récré",
    "street": "70 route de Satillieu",
    "city": " Vaudevant",
    "postal_code": " 07410",
    "state": " France70 route de Satillieu",
    "experience": "Assez confortable",
    "tel": "+33 4 75 06 08 99",
    "web_link": "http://www.restaurant-la-recre.com"
  },
  {
    "name": "Le Cèpe",
    "street": "Immeuble Les Merisiers",
    "city": " Méribel",
    "postal_code": " 73550",
    "state": " FranceImmeuble Les Merisiers",
    "experience": "Assez confortable. Nos établissements de charme.",
    "tel": "+33 4 79 22 46 08",
    "web_link": "https://www.instagram.com/explore/tags/yesmichelinguide/"
  },
  {
    "name": "Athome",
    "street": "16 rue de la Sienne",
    "city": " Heugueville-sur-Sienne",
    "postal_code": " 50200",
    "state": " France16 rue de la Sienne",
    "experience": "Assez confortable",
    "tel": "+33 2 33 47 19 61",
    "web_link": "https://www.instagram.com/explore/tags/yesmichelinguide/"
  },
  {
    "name": "So",
    "street": "15 rue  Amiral-Roussin",
    "city": " Dijon",
    "postal_code": " 21000",
    "state": " France15 rue  Amiral-Roussin",
    "experience": "Assez confortable",
    "tel": "+33 3 80 30 03 85",
    "web_link": "https://www.instagram.com/explore/tags/yesmichelinguide/"
  },
  {
    "name": "La Table du Pouyaud",
    "street": "57 route de Paris",
    "city": " Champcevinel",
    "postal_code": " 24750",
    "state": " France57 route de Paris",
    "experience": "Confortable",
    "tel": "+33 5 53 09 53 32",
    "web_link": "http://www.table-pouyaud.fr"
  },
  {
    "name": "Le Jardin Les Crayères",
    "street": "7 avenue du Général-Giraud",
    "city": " Reims",
    "postal_code": " 51100",
    "state": " France7 avenue du Général-Giraud",
    "experience": "Assez confortable. Nos établissements de charme.",
    "tel": "+33 3 26 24 90 90",
    "web_link": "tel:+33 3 26 24 90 90"
  },
  {
    "name": "Auberge de la Brenne",
    "street": "19 rue de la République",
    "city": " Neuillé-le-Lierre",
    "postal_code": " 37380",
    "state": " France19 rue de la République",
    "experience": "Confortable",
    "tel": "+33 2 47 52 95 05",
    "web_link": "http://www.auberge-brenne.com"
  },
  {
    "name": "Pierre & Jean",
    "street": "2 rue de la Poste",
    "city": " Chagny",
    "postal_code": " 71150",
    "state": " France2 rue de la Poste",
    "experience": "Assez confortable. Nos établissements de charme.",
    "tel": "+33 3 85 87 08 67",
    "web_link": "http://www.pierrejean-restaurant.fr"
  },
  {
    "name": "Racines by Daniel Gallacher",
    "street": "59 rue Georges-Bonnac",
    "city": " Bordeaux",
    "postal_code": " 33000",
    "state": " France59 rue Georges-Bonnac",
    "experience": "Assez confortable",
    "tel": "+33 5 56 98 43 08",
    "web_link": "https://www.instagram.com/explore/tags/yesmichelinguide/"
  },
  {
    "name": "Les Millésimes",
    "street": "14 place de l'Hôtel-de-Ville",
    "city": " Noyers",
    "postal_code": " 89310",
    "state": " France14 place de l'Hôtel-de-Ville",
    "experience": "Assez confortable. Nos établissements de charme.",
    "tel": "+33 3 86 82 82 16",
    "web_link": "tel:+33 3 86 82 82 16"
  },
  {
    "name": "La Baie d'Halong",
    "street": "49 rue de la Madeleine",
    "city": " Beauvais",
    "postal_code": " 60000",
    "state": " France49 rue de la Madeleine",
    "experience": "Assez confortable. Nos établissements de charme.",
    "tel": "+33 3 44 45 39 83",
    "web_link": "https://www.instagram.com/explore/tags/yesmichelinguide/"
  },
  {
    "name": "Auberge de la Baraque",
    "street": "2 route de Bordeaux",
    "city": " Orcines",
    "postal_code": " 63870",
    "state": " France2 route de Bordeaux",
    "experience": "Confortable",
    "tel": "+33 4 73 62 26 24",
    "web_link": "http://www.laubrieres.com"
  },
  {
    "name": "Richer",
    "street": "2 rue Richer",
    "city": " Paris",
    "postal_code": " 75009",
    "state": " France2 rue Richer",
    "experience": "Assez confortable",
    "tel": "+33 9 67 29 18 43",
    "web_link": "http://www.lericher.com"
  },
  {
    "name": "La Table d'Arthur R",
    "street": "9 rue Pierre Bérégovoy",
    "city": " Charleville-Mézières",
    "postal_code": " 08000",
    "state": " France9 rue Pierre Bérégovoy",
    "experience": "Assez confortable",
    "tel": "+33 3 24 57 05 64",
    "web_link": "http://www.latabledarthur.fr"
  },
  {
    "name": "Les Jardins de l'Acropolis",
    "street": "rue d'Athènes",
    "city": " à Bourran",
    "postal_code": " Rodez",
    "state": " 12000",
    "experience": "Confortable",
    "tel": "+33 5 65 68 40 07",
    "web_link": "http://www.restaurant-acropolis.com"
  },
  {
    "name": "Lougolin",
    "street": "381 route de Plascassier",
    "city": " Grasse",
    "postal_code": " 06130",
    "state": " France381 route de Plascassier",
    "experience": "Assez confortable",
    "tel": "+33 4 93 60 14 44",
    "web_link": "http://www.lougolin.com"
  },
  {
    "name": "L'Oxygène",
    "street": "La Charmette",
    "city": " Valmorel",
    "postal_code": " 73260",
    "state": " FranceLa Charmette",
    "experience": "Confortable",
    "tel": "+33 4 79 09 81 80",
    "web_link": "http://www.oxygene-hotel.fr"
  },
  {
    "name": "SOlange",
    "street": "59 rue d'Isly",
    "city": " Lille",
    "postal_code": " 59000",
    "state": " France59 rue d'Isly",
    "experience": "Assez confortable",
    "tel": "+33 9 86 37 22 50",
    "web_link": "http://www.solange-restaurant.fr"
  },
  {
    "name": "Le Beauvoir",
    "street": "1 avenue Marx-Dormoy",
    "city": " Bourges",
    "postal_code": " 18000",
    "state": " France1 avenue Marx-Dormoy",
    "experience": "Très confortable",
    "tel": "+33 2 48 65 42 44",
    "web_link": "http://www.restaurant-lebeauvoir.com"
  },
  {
    "name": "B2K6",
    "street": "6 rue du Caire",
    "city": " Lempdes",
    "postal_code": " 63370",
    "state": " France6 rue du Caire",
    "experience": "Assez confortable",
    "tel": "+33 4 73 61 74 71",
    "web_link": "http://www.b2k6.fr"
  },
  {
    "name": "L'Ormeau",
    "street": "4 quai Thomas",
    "city": " Cancale",
    "postal_code": " 35260",
    "state": " France4 quai Thomas",
    "experience": "Confortable",
    "tel": "+33 2 99 89 60 16",
    "web_link": "http://www.hotel-cancale.com"
  },
  {
    "name": "Téjérina-Hôtel de la Place",
    "street": "51 Place de la Mairie",
    "city": " Polliat",
    "postal_code": " 01310",
    "state": " France51 Place de la Mairie",
    "experience": "Confortable",
    "tel": "+33 4 74 30 40 19",
    "web_link": "http://www.restaurant-tejerina-logis.fr"
  },
  {
    "name": "Aux Plumes",
    "street": "45 rue Boulard",
    "city": " Paris",
    "postal_code": " 75014",
    "state": " France45 rue Boulard",
    "experience": "Assez confortable",
    "tel": "+33 1 53 90 76 22",
    "web_link": "http://www.auxplumes.com"
  },
  {
    "name": "DZ'envies",
    "street": "12 rue Odebert",
    "city": " Dijon",
    "postal_code": " 21000",
    "state": " France12 rue Odebert",
    "experience": "Assez confortable",
    "tel": "+33 3 80 50 09 26",
    "web_link": "http://www.dzenvies.com"
  },
  {
    "name": "Le 11 Bistrot Gourmand",
    "street": "11 rue de Verdun",
    "city": " Pontchâteau",
    "postal_code": " 44160",
    "state": " France11 rue de Verdun",
    "experience": "Assez confortable",
    "tel": "+33 2 40 42 23 28",
    "web_link": "http://www.restaurant-le11.fr"
  },
  {
    "name": "Le Petit Paris",
    "street": "au bourg",
    "city": " Daglan",
    "postal_code": " 24250",
    "state": " Franceau bourg",
    "experience": "Confortable",
    "tel": "+33 5 53 28 41 10",
    "web_link": "http://www.le-petit-paris.fr"
  },
  {
    "name": "Le Bistro des Glycines",
    "street": "4 avenue de Laugerie",
    "city": " Les Eyzies-de-Tayac",
    "postal_code": " 24620",
    "state": " France4 avenue de Laugerie",
    "experience": "Assez confortable",
    "tel": "+33 5 53 06 97 07",
    "web_link": "tel:+33 5 53 06 97 07"
  },
  {
    "name": "La Table 101",
    "street": "101 rue Moncey",
    "city": " Lyon",
    "postal_code": " 69003",
    "state": " France101 rue Moncey",
    "experience": "Assez confortable",
    "tel": "+33 4 78 60 90 23",
    "web_link": "http://www.latable101.fr"
  },
  {
    "name": "L'Îlot Vert",
    "street": "34-36 rue de Lille",
    "city": " Boulogne-sur-Mer",
    "postal_code": " 62200",
    "state": " France34-36 rue de Lille",
    "experience": "Assez confortable",
    "tel": "+33 3 21 92 01 62",
    "web_link": "http://www.lilotvert.fr"
  },
  {
    "name": "Côté Toqués",
    "street": "21 rue Hoche",
    "city": " Néris-les-Bains",
    "postal_code": " 03310",
    "state": " France21 rue Hoche",
    "experience": "Assez confortable",
    "tel": "+33 4 70 03 06 97",
    "web_link": "https://www.instagram.com/explore/tags/yesmichelinguide/"
  },
  {
    "name": "Côté Mer",
    "street": "4 rue Ernest-Lamort",
    "city": " Cancale",
    "postal_code": " 35260",
    "state": " France4 rue Ernest-Lamort",
    "experience": "Confortable. Nos établissements de charme.",
    "tel": "+33 2 99 89 66 08",
    "web_link": "http://www.restaurant-cotemer.fr"
  },
  {
    "name": "L'Auberge du Pont des Pierres",
    "street": "754 rue Paul-de-Vanssay",
    "city": " Montanges",
    "postal_code": " 01200",
    "state": " France754 rue Paul-de-Vanssay",
    "experience": "Assez confortable",
    "tel": "+33 4 50 56 36 35",
    "web_link": "http://www.pontdespierres.fr"
  },
  {
    "name": "Briket' Bistrot",
    "street": "rue de L'Église",
    "city": " Guéthary",
    "postal_code": " 64210",
    "state": " Francerue de L'Église",
    "experience": "Assez confortable",
    "tel": "+33 5 59 26 51 34",
    "web_link": "http://www.briketenia.com"
  },
  {
    "name": "Minami",
    "street": "19 faubourg Sainte-Claire",
    "city": " Annecy",
    "postal_code": " 74000",
    "state": " France19 faubourg Sainte-Claire",
    "experience": "Assez confortable",
    "tel": "+33 4 50 45 75 42",
    "web_link": "https://www.instagram.com/explore/tags/yesmichelinguide/"
  },
  {
    "name": "Le Manoir du Sphinx",
    "street": "67 chemin de la Messe",
    "city": " Perros-Guirec",
    "postal_code": " 22700",
    "state": " France67 chemin de la Messe",
    "experience": "Confortable. Nos établissements de charme.",
    "tel": "+33 2 96 23 25 42",
    "web_link": "http://www.lemanoirdusphinx.bzh"
  },
  {
    "name": "Chez John",
    "street": "465 route de Gaillac",
    "city": " Ambres",
    "postal_code": " 81500",
    "state": " France465 route de Gaillac",
    "experience": "Assez confortable",
    "tel": "+33 5 63 57 64 85",
    "web_link": "https://www.instagram.com/explore/tags/yesmichelinguide/"
  },
  {
    "name": "La Verdoyante",
    "street": "866 chemin vicinal Coste Brigade",
    "city": " Gassin",
    "postal_code": " 83580",
    "state": " France866 chemin vicinal Coste Brigade",
    "experience": "Confortable",
    "tel": "+33 4 94 56 16 23",
    "web_link": "http://www.la-verdoyante.fr"
  },
  {
    "name": "Etsi",
    "street": "23 rue Eugène-Carrière",
    "city": " Paris",
    "postal_code": " 75018",
    "state": " France23 rue Eugène-Carrière",
    "experience": "Assez confortable",
    "tel": "+33 1 71 50 00 80",
    "web_link": "http://www.etsi-paris.fr"
  },
  {
    "name": "Bellavista",
    "street": "place du Foiral",
    "city": " Prats-de-Mollo-la-Preste",
    "postal_code": " 66230",
    "state": " Franceplace du Foiral",
    "experience": "Confortable",
    "tel": "+33 4 68 39 72 48",
    "web_link": "http://www.hotel-le-bellevue.fr"
  },
  {
    "name": "Racine",
    "street": "1 rue du Chapeau-Rouge",
    "city": " impasse Charavay",
    "postal_code": " Lyon",
    "state": " 69009",
    "experience": "Assez confortable",
    "tel": "+33 4 26 18 57 15",
    "web_link": "http://www.racinerestaurant-lyon.com"
  },
  {
    "name": "Julien",
    "street": "Route de Strasbourg",
    "city": " Fouday",
    "postal_code": " 67130",
    "state": " FranceRoute de Strasbourg",
    "experience": "Confortable",
    "tel": "+33 3 88 97 30 09",
    "web_link": "http://www.hoteljulien.com"
  },
  {
    "name": "Madame Jeanne",
    "street": "84 rue de Grignan",
    "city": " Marseille",
    "postal_code": " 13001",
    "state": " France84 rue de Grignan",
    "experience": "Assez confortable",
    "tel": "+33 4 86 26 54 16",
    "web_link": "http://www.maisonbuon.com"
  },
  {
    "name": "La Vieille Forge",
    "street": "1 rue des Écoles",
    "city": " Kaysersberg",
    "postal_code": " 68240",
    "state": " France1 rue des Écoles",
    "experience": "Confortable",
    "tel": "+33 3 89 47 17 51",
    "web_link": "http://www.vieilleforge-kb.com"
  },
  {
    "name": "Le Bellevue",
    "street": "1 avenue des Pyrénées",
    "city": " Lacroix-Falgarde",
    "postal_code": " 31120",
    "state": " France1 avenue des Pyrénées",
    "experience": "Confortable",
    "tel": "+33 5 61 76 94 97",
    "web_link": "http://www.restaurant-lebellevue.com"
  },
  {
    "name": "Le Chalet",
    "street": "4 avenue Durandeau",
    "city": " Ax-les-Thermes",
    "postal_code": " 09110",
    "state": " France4 avenue Durandeau",
    "experience": "Confortable",
    "tel": "+33 5 61 64 24 31",
    "web_link": "tel:+33 5 61 64 24 31"
  },
  {
    "name": "Le Rendez-vous des Gourmets",
    "street": "20 rue Roger-Brun",
    "city": " Bracieux",
    "postal_code": " 41250",
    "state": " France20 rue Roger-Brun",
    "experience": "Assez confortable",
    "tel": "+33 2 54 46 03 87",
    "web_link": "https://www.instagram.com/explore/tags/yesmichelinguide/"
  },
  {
    "name": "Campagne, Vignes et Gourmandises",
    "street": "629 chemin des Terres",
    "city": " Sainte-Cécile-les-Vignes",
    "postal_code": " 84290",
    "state": " France629 chemin des Terres",
    "experience": "Assez confortable. Nos établissements de charme.",
    "tel": "+33 4 90 63 40 11",
    "web_link": "http://www.restaurant-cvg.com"
  },
  {
    "name": "La Maison de Kerdiès",
    "street": "5 route de Perherel",
    "city": " lieu-dit St-Samson",
    "postal_code": " Plougasnou",
    "state": " 29630",
    "experience": "Confortable",
    "tel": "+33 2 98 72 40 66",
    "web_link": "http://www.maisonkerdies.com"
  },
  {
    "name": "L'Antre Amis",
    "street": "9 rue Bouchut",
    "city": " Paris",
    "postal_code": " 75015",
    "state": " France9 rue Bouchut",
    "experience": "Assez confortable",
    "tel": "+33 1 45 67 15 65",
    "web_link": "http://www.lantreamis.com"
  },
  {
    "name": "Le Bistro Chapouton",
    "street": "200 route de Montélimar",
    "city": " Grignan",
    "postal_code": " 26230",
    "state": " France200 route de Montélimar",
    "experience": "Assez confortable",
    "tel": "+33 4 75 00 01 01",
    "web_link": "tel:+33 4 75 00 01 01"
  },
  {
    "name": "Les 7",
    "street": "32 quai Baluze",
    "city": " Tulle",
    "postal_code": " 19000",
    "state": " France32 quai Baluze",
    "experience": "Assez confortable",
    "tel": "+33 5 44 40 94 89",
    "web_link": "http://www.restaurant-les7.fr"
  },
  {
    "name": "La Botte d'Asperges",
    "street": "15 Rue Pierre-Henri Mauger",
    "city": " Contres",
    "postal_code": " 41700",
    "state": " France15 Rue Pierre-Henri Mauger",
    "experience": "Assez confortable",
    "tel": "+33 2 54 79 50 49",
    "web_link": "http://www.labottedasperges.com"
  },
  {
    "name": "Cokotte",
    "street": "6 rue Trois-Notre-Dame",
    "city": " Angoulême",
    "postal_code": " 16000",
    "state": " France6 rue Trois-Notre-Dame",
    "experience": "Confortable",
    "tel": "+33 5 45 95 15 19",
    "web_link": "tel:+33 5 45 95 15 19"
  },
  {
    "name": "La Grillade Gourmande",
    "street": "16 rue de Reims",
    "city": " Épernay",
    "postal_code": " 51200",
    "state": " France16 rue de Reims",
    "experience": "Confortable",
    "tel": "+33 3 26 55 44 22",
    "web_link": "http://www.lagrilladegourmande.com"
  },
  {
    "name": "La Bonne Auberge",
    "street": "63 Route Nationale",
    "city": " Dury",
    "postal_code": " 80480",
    "state": " France63 Route Nationale",
    "experience": "Confortable",
    "tel": "+33 3 22 95 03 33",
    "web_link": "http://www.labonneauberge80.com"
  },
  {
    "name": "Le Confidentiel",
    "street": "24 route des Moulins",
    "city": " Menthon-Saint-Bernard",
    "postal_code": " 74290",
    "state": " France24 route des Moulins",
    "experience": "Assez confortable",
    "tel": "+33 4 50 44 00 68",
    "web_link": "http://www.restaurant-leconfidentiel.fr"
  },
  {
    "name": "Le Petit Verdot du 17ème",
    "street": "9 rue Fourcroy",
    "city": " Paris",
    "postal_code": " 75017",
    "state": " France9 rue Fourcroy",
    "experience": "Assez confortable",
    "tel": "+33 1 42 27 47 42",
    "web_link": "https://www.instagram.com/explore/tags/yesmichelinguide/"
  },
  {
    "name": "Le Timbre",
    "street": "3 rue Ste-Beuve",
    "city": " Paris",
    "postal_code": " 75006",
    "state": " France3 rue Ste-Beuve",
    "experience": "Assez confortable",
    "tel": "+33 1 45 49 10 40",
    "web_link": "tel:+33 1 45 49 10 40"
  },
  {
    "name": "L'AO - L'Aigle d'Or",
    "street": "5 rue Principale",
    "city": " Rimbach-près-Guebwiller",
    "postal_code": " 68500",
    "state": " France5 rue Principale",
    "experience": "Assez confortable",
    "tel": "+33 3 89 76 89 90",
    "web_link": "http://www.hotelaigledor.com"
  },
  {
    "name": "Les Loges du Jardin d'Aymeric",
    "street": "7 rue du Canigou",
    "city": " Clara",
    "postal_code": " 66500",
    "state": " France7 rue du Canigou",
    "experience": "Confortable",
    "tel": "+33 4 68 96 08 72",
    "web_link": "http://www.logesaymeric.com"
  },
  {
    "name": "Le 6 à Table",
    "street": "6 place Nationale",
    "city": " Caromb",
    "postal_code": " 84330",
    "state": " France6 place Nationale",
    "experience": "Assez confortable",
    "tel": "+33 4 90 62 37 91",
    "web_link": "http://www.pascal-poulain.com"
  },
  {
    "name": "La Ferme de Cupelin",
    "street": "198 route du Château",
    "city": " Saint-Gervais-les-Bains",
    "postal_code": " 74170",
    "state": " France198 route du Château",
    "experience": "Confortable. Nos établissements de charme.",
    "tel": "+33 4 50 93 47 30",
    "web_link": "http://www.lafermedecupelin.com"
  },
  {
    "name": "Le Denti",
    "street": "25 bis avenue de Loverchy",
    "city": " Annecy",
    "postal_code": " 74000",
    "state": " France25 bis avenue de Loverchy",
    "experience": "Assez confortable",
    "tel": "+33 4 50 64 21 17",
    "web_link": "https://www.instagram.com/explore/tags/yesmichelinguide/"
  },
  {
    "name": "Restaurant du Musée",
    "street": "2 rue de la Rochette",
    "city": " Fréland",
    "postal_code": " 68240",
    "state": " France2 rue de la Rochette",
    "experience": "Confortable",
    "tel": "+33 3 89 47 24 18",
    "web_link": "tel:+33 3 89 47 24 18"
  },
  {
    "name": "Le Petit St-Thomas",
    "street": "25 rue de Lattre-de-Tassigny",
    "city": " La Garnache",
    "postal_code": " 85710",
    "state": " France25 rue de Lattre-de-Tassigny",
    "experience": "Confortable",
    "tel": "+33 2 51 49 05 99",
    "web_link": "http://www.restaurant-petit-st-thomas.com"
  },
  {
    "name": "Les Voiles",
    "street": "101 quai Commandant-le-Prieur",
    "city": " Saint-Raphaël",
    "postal_code": " 83700",
    "state": " France101 quai Commandant-le-Prieur",
    "experience": "Assez confortable",
    "tel": "+33 4 94 40 39 15",
    "web_link": "https://www.instagram.com/explore/tags/yesmichelinguide/"
  },
  {
    "name": "Cabane",
    "street": "8 rue du Docteur-Foucault",
    "city": " Nanterre",
    "postal_code": " 92000",
    "state": " France8 rue du Docteur-Foucault",
    "experience": "Assez confortable",
    "tel": "+33 1 47 25 22 51",
    "web_link": "http://www.cabanerestaurant.com"
  },
  {
    "name": "Le Brélévenez",
    "street": "1 rue Stang-Ar-Béo",
    "city": " Lannion",
    "postal_code": " 22300",
    "state": " France1 rue Stang-Ar-Béo",
    "experience": "Assez confortable",
    "tel": "+33 2 56 14 07 91",
    "web_link": "http://www.restaurant-lebrelevenez.fr"
  },
  {
    "name": "Au Vieux Moulin",
    "street": "7 rue du Vieux-Moulin",
    "city": " Graufthal",
    "postal_code": " 67320",
    "state": " France7 rue du Vieux-Moulin",
    "experience": "Confortable",
    "tel": "+33 3 88 70 17 28",
    "web_link": "http://www.auvieuxmoulin.eu"
  },
  {
    "name": "Winstub du Chambard",
    "street": "9-13 rue du Général-de-Gaulle",
    "city": " Kaysersberg",
    "postal_code": " 68240",
    "state": " France9-13 rue du Général-de-Gaulle",
    "experience": "Assez confortable. Nos établissements de charme.",
    "tel": "+33 3 89 47 10 17",
    "web_link": "tel:+33 3 89 47 10 17"
  },
  {
    "name": "Les Dilettants",
    "street": "1193 chemin de Saint-Bernard",
    "city": " Vallauris",
    "postal_code": " 06220",
    "state": " France1193 chemin de Saint-Bernard",
    "experience": "Assez confortable",
    "tel": "+33 4 93 33 99 59",
    "web_link": "https://www.instagram.com/explore/tags/yesmichelinguide/"
  },
  {
    "name": "L'Agape",
    "street": "21 place des Corps-Saints",
    "city": " Avignon",
    "postal_code": " 84000",
    "state": " France21 place des Corps-Saints",
    "experience": "Assez confortable",
    "tel": "+33 4 90 85 04 06",
    "web_link": "http://www.restaurant-agape-avignon.com"
  },
  {
    "name": "Au Coq en Velours",
    "street": "1800 route de Saint-Genix",
    "city": " Aoste",
    "postal_code": " 38490",
    "state": " France1800 route de Saint-Genix",
    "experience": "Confortable",
    "tel": "+33 4 76 31 60 04",
    "web_link": "http://www.au-coq-en-velours.com"
  },
  {
    "name": "33 Cité",
    "street": "33 quai Charles-de-Gaulle",
    "city": " Lyon",
    "postal_code": " 69006",
    "state": " France33 quai Charles-de-Gaulle",
    "experience": "Assez confortable",
    "tel": "+33 4 37 45 45 45",
    "web_link": "tel:+33 4 37 45 45 45"
  },
  {
    "name": "Grain de Sel",
    "street": "67 rue Pasteur",
    "city": " Dole",
    "postal_code": " 39100",
    "state": " France67 rue Pasteur",
    "experience": "Assez confortable",
    "tel": "+33 3 84 71 97 36",
    "web_link": "http://www.restaurant-graindesel.fr"
  },
  {
    "name": "Le Morvan",
    "street": "6 rue des Écoles",
    "city": " Quarré-les-Tombes",
    "postal_code": " 89630",
    "state": " France6 rue des Écoles",
    "experience": "Confortable",
    "tel": "+33 3 86 32 29 29",
    "web_link": "http://www.le-morvan.fr"
  },
  {
    "name": "La Longère",
    "street": "1c rue du Docteur-Couderc",
    "city": " Le Neubourg",
    "postal_code": " 27110",
    "state": " France1c rue du Docteur-Couderc",
    "experience": "Assez confortable",
    "tel": "+33 2 32 60 29 83",
    "web_link": "http://www.restaurant-la-longere.fr"
  },
  {
    "name": "La Table d'Élise",
    "street": "5 rue Marie-Lemonnier",
    "city": " L'Herbaudière",
    "postal_code": " 85330",
    "state": " France5 rue Marie-Lemonnier",
    "experience": "Assez confortable",
    "tel": "+33 2 28 10 68 35",
    "web_link": "http://www.alexandrecouillon.com"
  },
  {
    "name": "Au Cheval Blanc",
    "street": "11 rue Principale",
    "city": " Niedersteinbach",
    "postal_code": " 67510",
    "state": " France11 rue Principale",
    "experience": "Confortable",
    "tel": "+33 3 88 09 55 31",
    "web_link": "http://www.hotel-cheval-blanc.fr"
  },
  {
    "name": "Auberge Lentaise",
    "street": "Grande-Rue",
    "city": " Lent",
    "postal_code": " 01240",
    "state": " FranceGrande-Rue",
    "experience": "Confortable",
    "tel": "+33 4 74 21 55 05",
    "web_link": "tel:+33 4 74 21 55 05"
  },
  {
    "name": "Auberge de la Rivière",
    "street": "rue du Port-de-la-Fouarne",
    "city": " Velluire",
    "postal_code": " 85770",
    "state": " Francerue du Port-de-la-Fouarne",
    "experience": "Très confortable",
    "tel": "+33 2 51 52 32 15",
    "web_link": "http://www.hotel-riviere-vendee.com"
  },
  {
    "name": "La Ferme de Villeneuve",
    "street": "28 rue du Pré-Etienne",
    "city": " Château-d'Olonne",
    "postal_code": " 85180",
    "state": " France28 rue du Pré-Etienne",
    "experience": "Confortable",
    "tel": "+33 2 51 33 41 83",
    "web_link": "https://www.instagram.com/explore/tags/yesmichelinguide/"
  },
  {
    "name": "Nougier",
    "street": "2 place de l'Église",
    "city": " Fursac",
    "postal_code": " 23290",
    "state": " France2 place de l'Église",
    "experience": "Confortable",
    "tel": "+33 5 55 63 60 56",
    "web_link": "http://www.hotelnougier.fr"
  },
  {
    "name": "L'ArtYsan",
    "street": "35 plan de la Gare",
    "city": " Quissac",
    "postal_code": " 30260",
    "state": " France35 plan de la Gare",
    "experience": "Assez confortable",
    "tel": "+33 4 66 77 02 45",
    "web_link": "http://www.lartysan.com"
  },
  {
    "name": "Café des Arts",
    "street": "2 rue de la Poste",
    "city": " Beaulieu-sous-la-Roche",
    "postal_code": " 85190",
    "state": " France2 rue de la Poste",
    "experience": "Assez confortable",
    "tel": "+33 2 51 98 24 80",
    "web_link": "http://www.lecafedesarts-beaulieu.com"
  },
  {
    "name": "Les Canailles Ménilmontant",
    "street": "\n                                \n                                    \n                                        1 Offre\n                                    \n                                \n                            \n                                    \n                                        \n                                            1 Offre\n                                        \n                                    \n                                ",
    "experience": "Assez confortable",
    "tel": "+33 1 43 58 45 45",
    "web_link": "javascript:void(0)"
  },
  {
    "name": "Aux Plaisirs des Halles",
    "street": "4 rue Littré",
    "city": " Nîmes",
    "postal_code": " 30000",
    "state": " France4 rue Littré",
    "experience": "Confortable",
    "tel": "+33 4 66 36 01 02",
    "web_link": "http://www.auxplaisirsdeshalles.com"
  },
  {
    "name": "La Chaumière",
    "street": "2 rue Paul-Lasnier",
    "city": " Aubigny-sur-Nère",
    "postal_code": " 18700",
    "state": " France2 rue Paul-Lasnier",
    "experience": "Confortable. Nos établissements de charme.",
    "tel": "+33 2 48 58 04 01",
    "web_link": "http://www.hotel-restaurant-la-chaumiere.com"
  },
  {
    "name": "Manoir Hastings",
    "street": "18 avenue de la Côte-de-Nacre",
    "city": " Bénouville",
    "postal_code": " 14970",
    "state": " France18 avenue de la Côte-de-Nacre",
    "experience": "Confortable",
    "tel": "+33 2 31 44 62 43",
    "web_link": "http://www.manoirdhastings.fr"
  },
  {
    "name": "L'Art Gourmand",
    "street": "14 place de la Maison des Princes",
    "city": " Pont-Scorff",
    "postal_code": " 56620",
    "state": " France14 place de la Maison des Princes",
    "experience": "Assez confortable",
    "tel": "+33 2 97 32 65 08",
    "web_link": "http://www.lartgourmand.com"
  },
  {
    "name": "Bürestubel",
    "street": "8 rue de Lampertheim",
    "city": " Pfulgriesheim",
    "postal_code": " 67370",
    "state": " France8 rue de Lampertheim",
    "experience": "Assez confortable",
    "tel": "+33 3 88 20 01 92",
    "web_link": "tel:+33 3 88 20 01 92"
  },
  {
    "name": "Le Vanteaux",
    "street": "162 boulevard de Vanteaux",
    "city": " Limoges",
    "postal_code": " 87000",
    "state": " France162 boulevard de Vanteaux",
    "experience": "Confortable",
    "tel": "+33 5 55 49 01 26",
    "web_link": "tel:+33 5 55 49 01 26"
  },
  {
    "name": "Le Clos de la Fontaine",
    "street": "9 rue du Général-de-Gaulle",
    "city": " Guingamp",
    "postal_code": " 22200",
    "state": " France9 rue du Général-de-Gaulle",
    "experience": "Confortable",
    "tel": "+33 2 96 21 33 63",
    "web_link": "https://www.instagram.com/explore/tags/yesmichelinguide/"
  },
  {
    "name": "Olive et Artichaut",
    "street": "6 rue Ste-Réparate",
    "city": " Nice",
    "postal_code": " 06000",
    "state": " France6 rue Ste-Réparate",
    "experience": "Assez confortable",
    "tel": "+33 4 89 14 97 51",
    "web_link": "http://www.oliveartichaut.com"
  },
  {
    "name": "La Chênaie",
    "street": "rue du Lejat - lieu-dit La Berlanderie",
    "city": " Croutelle",
    "postal_code": " 86240",
    "state": " Francerue du Lejat - lieu-dit La Berlanderie",
    "experience": "Confortable",
    "tel": "+33 5 49 57 11 52",
    "web_link": "http://www.la-chenaie.com"
  },
  {
    "name": "Auberge St-Fiacre",
    "street": "5 rue de la Fontaine",
    "city": " Veuil",
    "postal_code": " 36600",
    "state": " France5 rue de la Fontaine",
    "experience": "Confortable",
    "tel": "+33 2 54 40 32 78",
    "web_link": "http://www.aubergesaintfiacre.com"
  },
  {
    "name": "La Récréation Gourmande",
    "street": "3 rue de l'Ancienne-École",
    "city": " Villegenon",
    "postal_code": " 18260",
    "state": " France3 rue de l'Ancienne-École",
    "experience": "Assez confortable",
    "tel": "+33 2 48 73 45 36",
    "web_link": "http://www.la-recreation-gourmande.com"
  },
  {
    "name": "La Table d'Yves",
    "street": "1357 route de Fréjus",
    "city": " Fayence",
    "postal_code": " 83440",
    "state": " France1357 route de Fréjus",
    "experience": "Assez confortable. Nos établissements de charme.",
    "tel": "+33 4 94 76 08 44",
    "web_link": "http://www.latabledyves.com"
  },
  {
    "name": "Auberge de La Mère Duval",
    "street": "Place Daniel-Boucour",
    "city": " Val-de-Saâne",
    "postal_code": " 76890",
    "state": " FrancePlace Daniel-Boucour",
    "experience": "Confortable",
    "tel": "+33 2 35 32 30 13",
    "web_link": "http://www.lamereduval.fr"
  },
  {
    "name": "Le Bistrot Saint Jean",
    "street": "Avenue Henri-de-la-Tourfondue",
    "city": " Montluçon",
    "postal_code": " 03100",
    "state": " FranceAvenue Henri-de-la-Tourfondue",
    "experience": "Assez confortable",
    "tel": "+33 4 70 03 26 57",
    "web_link": "http://www.chateau-saint-jean.com"
  },
  {
    "name": "Cozna",
    "street": "22 faubourg Sainte-Claire",
    "city": " Annecy",
    "postal_code": " 74000",
    "state": " France22 faubourg Sainte-Claire",
    "experience": "Assez confortable",
    "tel": "+33 4 50 65 00 25",
    "web_link": "http://www.restaurantcozna.com"
  },
  {
    "name": "Le Viscos",
    "street": "1 rue Lamarque",
    "city": " Saint-Savin",
    "postal_code": " 65400",
    "state": " France1 rue Lamarque",
    "experience": "Très confortable",
    "tel": "+33 5 62 97 02 28",
    "web_link": "tel:+33 5 62 97 02 28"
  },
  {
    "name": "Le Bistrot du 11",
    "street": "10 rue de Satory",
    "city": " Versailles",
    "postal_code": " 78000",
    "state": " France10 rue de Satory",
    "experience": "Assez confortable",
    "tel": "+33 1 75 45 63 70",
    "web_link": "http://www.lebistrotdu11.com"
  },
  {
    "name": "Le Caillebotte",
    "street": "8 rue Hippolyte-Lebas",
    "city": " Paris",
    "postal_code": " 75009",
    "state": " France8 rue Hippolyte-Lebas",
    "experience": "Assez confortable",
    "tel": "+33 1 53 20 88 70",
    "web_link": "https://www.instagram.com/explore/tags/yesmichelinguide/"
  },
  {
    "name": "La Ferme de Victorine",
    "street": "Le Planay",
    "city": " Notre-Dame-de-Bellecombe",
    "postal_code": " 73590",
    "state": " FranceLe Planay",
    "experience": "Assez confortable. Nos établissements de charme.",
    "tel": "+33 4 79 31 63 46",
    "web_link": "http://www.la-ferme-de-victorine.com"
  },
  {
    "name": "Boulevard 45",
    "street": "45 boulevard de la République",
    "city": " Royan",
    "postal_code": " 17200",
    "state": " France45 boulevard de la République",
    "experience": "Assez confortable",
    "tel": "+33 5 16 65 85 43",
    "web_link": "https://www.instagram.com/explore/tags/yesmichelinguide/"
  },
  {
    "name": "Le Bistrot 270",
    "street": "270 chemin de Malombre",
    "city": " Malataverne",
    "postal_code": " 26780",
    "state": " France270 chemin de Malombre",
    "experience": "Assez confortable",
    "tel": "+33 4 75 90 86 86",
    "web_link": "http://www.domaine-colombier.com"
  },
  {
    "name": "La Closerie des Roses",
    "street": "\n                                \n                                    \n                                        1 Offre\n                                    \n                                \n                            \n                                    \n                                        \n                                            1 Offre\n                                        \n                                    \n                                ",
    "experience": "Confortable. Nos établissements de charme.",
    "tel": "+33 2 40 98 33 30",
    "web_link": "javascript:void(0)"
  },
  {
    "name": "Mimosa",
    "street": "284 boulevard du Front-de-Mer",
    "city": " Bormes-les-Mimosa",
    "postal_code": " 83230",
    "state": " France284 boulevard du Front-de-Mer",
    "experience": "Assez confortable",
    "tel": "+33 9 87 36 49 46",
    "web_link": "tel:+33 9 87 36 49 46"
  },
  {
    "name": "L'Ourdissoir",
    "street": "40 rue Saint-Bonaventure",
    "city": " Cholet",
    "postal_code": " 49300",
    "state": " France40 rue Saint-Bonaventure",
    "experience": "Assez confortable",
    "tel": "+33 2 41 58 55 18",
    "web_link": "http://www.lourdissoir.com"
  },
  {
    "name": "Essentiel",
    "street": "11 rue Armand-Rébillon",
    "city": " Rennes",
    "postal_code": " 35000",
    "state": " France11 rue Armand-Rébillon",
    "experience": "Confortable",
    "tel": "+33 2 99 14 25 14",
    "web_link": "http://www.restaurantessentiel.com"
  },
  {
    "name": "Le Nid",
    "street": "37 boulevard Jean-Moulin",
    "city": " Flayosc",
    "postal_code": " 83780",
    "state": " France37 boulevard Jean-Moulin",
    "experience": "Assez confortable",
    "tel": "+33 4 94 68 09 96",
    "web_link": "tel:+33 4 94 68 09 96"
  },
  {
    "name": "La Taverne Alsacienne",
    "street": "99 rue de la République",
    "city": " Ingersheim",
    "postal_code": " 68040",
    "state": " France99 rue de la République",
    "experience": "Confortable",
    "tel": "+33 3 89 27 08 41",
    "web_link": "tel:+33 3 89 27 08 41"
  },
  {
    "name": "Cucina",
    "street": "20 rue Saint-Victor",
    "city": " Paris",
    "postal_code": " 75005",
    "state": " France20 rue Saint-Victor",
    "experience": "Confortable",
    "tel": "+33 1 44 31 54 54",
    "web_link": "http://www.cucina-mutualite.com"
  },
  {
    "name": "Bistro À Côté",
    "street": "21 rue des Carmes",
    "city": " Arles",
    "postal_code": " 13200",
    "state": " France21 rue des Carmes",
    "experience": "Assez confortable",
    "tel": "+33 4 90 47 61 13",
    "web_link": "http://www.rabanel.com"
  },
  {
    "name": "L'Estacade",
    "street": "4 quai du Lénigo",
    "city": " Le Croisic",
    "postal_code": " 44490",
    "state": " France4 quai du Lénigo",
    "experience": "Confortable",
    "tel": "+33 2 40 23 03 77",
    "web_link": "http://www.lestacade.fr"
  },
  {
    "name": "Le Flaveur",
    "street": "4 rue Duquesne",
    "city": " Concarneau",
    "postal_code": " 29900",
    "state": " France4 rue Duquesne",
    "experience": "Confortable",
    "tel": "+33 2 98 60 43 47",
    "web_link": "https://www.instagram.com/explore/tags/yesmichelinguide/"
  },
  {
    "name": "Pho Tai",
    "street": "13 rue Philibert-Lucot",
    "city": " Paris",
    "postal_code": " 75013",
    "state": " France13 rue Philibert-Lucot",
    "experience": "Assez confortable",
    "tel": "+33 1 45 85 97 36",
    "web_link": "https://www.instagram.com/explore/tags/yesmichelinguide/"
  },
  {
    "name": "Le Saint-Jacques",
    "street": "Place du Monument",
    "city": " Thorigné-sur-Dué",
    "postal_code": " 72160",
    "state": " FrancePlace du Monument",
    "experience": "Confortable",
    "tel": "+33 2 43 89 95 50",
    "web_link": "http://www.hotel-sarthe.fr"
  },
  {
    "name": "Le Grand St-Benoît",
    "street": "7 place St-André",
    "city": " Saint-Benoît-sur-Loire",
    "postal_code": " 45730",
    "state": " France7 place St-André",
    "experience": "Confortable",
    "tel": "+33 2 38 35 11 92",
    "web_link": "http://www.restaurant-grand-saint-benoit.com"
  },
  {
    "name": "La Table Bâgésienne",
    "street": "19 Grande-Rue",
    "city": " Bâgé-le-Châtel",
    "postal_code": " 01380",
    "state": " France19 Grande-Rue",
    "experience": "Confortable",
    "tel": "+33 3 85 30 54 22",
    "web_link": "tel:+33 3 85 30 54 22"
  },
  {
    "name": "Auberge des 3 J",
    "street": "1 place du Docteur-Gireaux",
    "city": " Nocé",
    "postal_code": " 61340",
    "state": " France1 place du Docteur-Gireaux",
    "experience": "Confortable",
    "tel": "+33 2 33 73 41 03",
    "web_link": "http://www.auberge-3j.fr"
  },
  {
    "name": "La Table d'Antan",
    "street": "38 avenue de la Grande-Charmille-du-Parc",
    "city": " Sainte-Geneviève-des-Bois",
    "postal_code": " 91700",
    "state": " France38 avenue de la Grande-Charmille-du-Parc",
    "experience": "Confortable",
    "tel": "+33 1 60 15 71 53",
    "web_link": "http://www.latabledantan.fr"
  },
  {
    "name": "Itacoa",
    "street": "185 rue St-Denis",
    "city": " Paris",
    "postal_code": " 75002",
    "state": " France185 rue St-Denis",
    "experience": "Assez confortable",
    "tel": "+33 9 50 48 35 78",
    "web_link": "http://www.itacoa.paris"
  },
  {
    "name": "Bistrotters",
    "street": "9 rue Decrès",
    "city": " Paris",
    "postal_code": " 75014",
    "state": " France9 rue Decrès",
    "experience": "Assez confortable",
    "tel": "+33 1 45 45 58 59",
    "web_link": "tel:+33 1 45 45 58 59"
  },
  {
    "name": "Au Chapeau Rouge",
    "street": "49 place du Général-de-Gaulle",
    "city": " Chinon",
    "postal_code": " 37500",
    "state": " France49 place du Général-de-Gaulle",
    "experience": "Confortable",
    "tel": "+33 2 47 98 08 08",
    "web_link": "http://www.auchapeaurouge.fr"
  },
  {
    "name": "La Table de Romain",
    "street": "1 rue Gaston-Robbe",
    "city": " Renescure",
    "postal_code": " 59173",
    "state": " France1 rue Gaston-Robbe",
    "experience": "Assez confortable",
    "tel": "+33 9 67 35 23 60",
    "web_link": "http://www.tablederomain.kazeo.com"
  },
  {
    "name": "Relais de l'Abbaye",
    "street": "415 route du Beaujolais",
    "city": " Charlieu",
    "postal_code": " 42190",
    "state": " France415 route du Beaujolais",
    "experience": "Confortable",
    "tel": "+33 4 77 60 00 88",
    "web_link": "tel:+33 4 77 60 00 88"
  },
  {
    "name": "Le Bistrot de Guillaume",
    "street": "13 rue de Pont",
    "city": " Moulins",
    "postal_code": " 03000",
    "state": " France13 rue de Pont",
    "experience": "Assez confortable",
    "tel": "+33 4 43 51 23 82",
    "web_link": "https://www.instagram.com/explore/tags/yesmichelinguide/"
  },
  {
    "name": "Ô Saveurs",
    "street": "38 rue Georges-Clemenceau",
    "city": " Falaise",
    "postal_code": " 14700",
    "state": " France38 rue Georges-Clemenceau",
    "experience": "Confortable",
    "tel": "+33 2 31 90 13 14",
    "web_link": "tel:+33 2 31 90 13 14"
  },
  {
    "name": "Le Saint-Eutrope",
    "street": "4 rue St-Eutrope",
    "city": " Clermont-Ferrand",
    "postal_code": " 63000",
    "state": " France4 rue St-Eutrope",
    "experience": "Assez confortable",
    "tel": "+33 4 73 34 30 41",
    "web_link": "http://www.sainteutrope.com"
  },
  {
    "name": "Le Bistrot",
    "street": "5 chemin de l'Étang-du-Moulin",
    "city": " Bonnétage",
    "postal_code": " 25210",
    "state": " France5 chemin de l'Étang-du-Moulin",
    "experience": "Assez confortable",
    "tel": "+33 3 81 68 92 78",
    "web_link": "http://www.etang-du-moulin.com"
  },
  {
    "name": "La Cour de Rémi",
    "street": "1 rue Baillet",
    "city": " Bermicourt",
    "postal_code": " 62130",
    "state": " France1 rue Baillet",
    "experience": "Assez confortable",
    "tel": "+33 3 21 03 33 33",
    "web_link": "http://www.lacourderemi.com"
  },
  {
    "name": "La Bartavelle",
    "street": "24 rue de la République",
    "city": " Argelès-sur-Mer",
    "postal_code": " 66700",
    "state": " France24 rue de la République",
    "experience": "Assez confortable",
    "tel": "+33 6 19 25 70 13",
    "web_link": "http://www.restaurant-labartavelle.fr"
  },
  {
    "name": "Sauf Imprévu",
    "street": "40 rue Pierre-Corneille",
    "city": " Lyon",
    "postal_code": " 69006",
    "state": " France40 rue Pierre-Corneille",
    "experience": "Assez confortable",
    "tel": "+33 4 78 52 16 35",
    "web_link": "https://www.instagram.com/explore/tags/yesmichelinguide/"
  },
  {
    "name": "L'Artimon",
    "street": "17 rue Jean-du-Plessis",
    "city": " La Bernerie-en-Retz",
    "postal_code": " 44760",
    "state": " France17 rue Jean-du-Plessis",
    "experience": "Assez confortable",
    "tel": "+33 2 51 74 61 60",
    "web_link": "https://www.instagram.com/explore/tags/yesmichelinguide/"
  },
  {
    "name": "Au Bout de la Rue",
    "street": "60 rue de la Gare",
    "city": " Flers",
    "postal_code": " 61100",
    "state": " France60 rue de la Gare",
    "experience": "Confortable",
    "tel": "+33 2 33 65 31 53",
    "web_link": "http://www.auboutdelarue.com"
  },
  {
    "name": "Jeux 2 Goûts",
    "street": "40 rue Grande",
    "city": " Châteauroux",
    "postal_code": " 36000",
    "state": " France40 rue Grande",
    "experience": "Confortable",
    "tel": "+33 2 54 27 66 28",
    "web_link": "http://www.jeux2gouts.fr"
  },
  {
    "name": "La Toq'",
    "street": "1 rue Monseigneur-Trouillet",
    "city": " Nancy",
    "postal_code": " 54000",
    "state": " France1 rue Monseigneur-Trouillet",
    "experience": "Confortable",
    "tel": "+33 3 83 30 17 20",
    "web_link": "http://www.latoqueblanche.fr"
  },
  {
    "name": "L'Envie du Jour",
    "street": "106 rue Nollet",
    "city": " Paris",
    "postal_code": " 75017",
    "state": " France106 rue Nollet",
    "experience": "Assez confortable",
    "tel": "+33 1 42 26 01 02",
    "web_link": "http://www.lenviedujour.com"
  },
  {
    "name": "Bello Visto",
    "street": "place des Barrys",
    "city": " Gassin",
    "postal_code": " 83580",
    "state": " Franceplace des Barrys",
    "experience": "Confortable",
    "tel": "+33 4 94 56 17 30",
    "web_link": "tel:+33 4 94 56 17 30"
  },
  {
    "name": "Maison Chabran - Espace Gourmand",
    "street": "\n                                \n                                    \n                                        2 Offres\n                                    \n                                \n                            \n                                    \n                                        \n                                            2 Offres\n                                        \n                                    \n                                ",
    "experience": "Assez confortable",
    "tel": "+33 4 75 84 60 09",
    "web_link": "https://content.static-bookatable.com/ServePromotionAttachment.aspx?id=125872"
  },
  {
    "name": "L'Altévic",
    "street": "4 rue du Wiggensbach",
    "city": " Hattstatt",
    "postal_code": " 68420",
    "state": " France4 rue du Wiggensbach",
    "experience": "Assez confortable",
    "tel": "+33 3 89 78 83 56",
    "web_link": "tel:+33 3 89 78 83 56"
  },
  {
    "name": "Maison Gambert",
    "street": "2 rue de la Petite-Pirelle",
    "city": " Tain-l'Hermitage",
    "postal_code": " 26600",
    "state": " France2 rue de la Petite-Pirelle",
    "experience": "Assez confortable",
    "tel": "+33 4 75 09 19 85",
    "web_link": "tel:+33 4 75 09 19 85"
  },
  {
    "name": "Le Faitout",
    "street": "1 place du Pont",
    "city": " Berlou",
    "postal_code": " 34360",
    "state": " France1 place du Pont",
    "experience": "Assez confortable",
    "tel": "+33 4 67 24 16 99",
    "web_link": "http://www.lefaitout.net"
  },
  {
    "name": "Domaine de Baulieu",
    "street": "822 chemin de Lussan",
    "city": " Auch",
    "postal_code": " 32000",
    "state": " France822 chemin de Lussan",
    "experience": "Assez confortable",
    "tel": "+33 5 62 59 97 38",
    "web_link": "http://www.ledomainedebaulieu.com"
  },
  {
    "name": "Auberge de l'Ady",
    "street": "1 avenue du Pont-de-Malakoff",
    "city": " Valady",
    "postal_code": " 12330",
    "state": " France1 avenue du Pont-de-Malakoff",
    "experience": "Confortable",
    "tel": "+33 5 65 72 70 24",
    "web_link": "tel:+33 5 65 72 70 24"
  },
  {
    "name": "Les Coloquintes",
    "street": "Quai de l'Ardèche",
    "city": " Aubenas",
    "postal_code": " 07200",
    "state": " FranceQuai de l'Ardèche",
    "experience": "Confortable",
    "tel": "+33 4 75 93 58 33",
    "web_link": "tel:+33 4 75 93 58 33"
  },
  {
    "name": "La P'tite Cour",
    "street": "6 rue Barthélemy-de-Don",
    "city": " Sanary-sur-Mer",
    "postal_code": " 83110",
    "state": " France6 rue Barthélemy-de-Don",
    "experience": "Confortable",
    "tel": "+33 4 94 88 08 05",
    "web_link": "http://www.laptitecour.com"
  },
  {
    "name": "La Bergerie",
    "street": "Allée Pech Marie",
    "city": " Aragon",
    "postal_code": " 11600",
    "state": " FranceAllée Pech Marie",
    "experience": "Confortable",
    "tel": "+33 4 68 26 10 65",
    "web_link": "http://www.labergeriearagon.com"
  },
  {
    "name": "Sur le Pont ...",
    "street": "11 place Paul-Gauguin",
    "city": " Pont-Aven",
    "postal_code": " 29930",
    "state": " France11 place Paul-Gauguin",
    "experience": "Assez confortable",
    "tel": "+33 2 98 06 16 16",
    "web_link": "http://www.surlepont-pontaven.fr"
  },
  {
    "name": "Esttia",
    "street": "11 rue de la Grande-Chaumière",
    "city": " Paris",
    "postal_code": " 75006",
    "state": " France11 rue de la Grande-Chaumière",
    "experience": "Assez confortable",
    "tel": "+33 1 72 60 43 63",
    "web_link": "tel:+33 1 72 60 43 63"
  },
  {
    "name": "Mandoobar",
    "street": "7 rue d'Edimbourg",
    "city": " Paris",
    "postal_code": " 75008",
    "state": " France7 rue d'Edimbourg",
    "experience": "Assez confortable",
    "tel": "+33 1 55 06 08 53",
    "web_link": "http://www.mandoobar.fr"
  },
  {
    "name": "La Toupine",
    "street": "27 avenue Pasteur",
    "city": " Brive-la-Gaillarde",
    "postal_code": " 19100",
    "state": " France27 avenue Pasteur",
    "experience": "Confortable",
    "tel": "+33 5 55 23 71 58",
    "web_link": "http://www.latoupine.fr"
  },
  {
    "name": "France et Fuchsias",
    "street": "20 rue du Maréchal-Foch",
    "city": " Saint-Vaast-la-Hougue",
    "postal_code": " 50550",
    "state": " France20 rue du Maréchal-Foch",
    "experience": "Confortable",
    "tel": "+33 2 33 54 40 41",
    "web_link": "http://www.france-fuchsias.com"
  },
  {
    "name": "Hostellerie Saint-Clément",
    "street": "Col de Curebourse",
    "city": " Saint-Clément",
    "postal_code": " 15800",
    "state": " FranceCol de Curebourse",
    "experience": "Confortable",
    "tel": "+33 4 71 47 51 71",
    "web_link": "http://www.hotelstclementcantal.com"
  },
  {
    "name": "L'Instant...",
    "street": "13/14 chemin du Logis-Vieux",
    "city": " Montrabé",
    "postal_code": " 31850",
    "state": " France13/14 chemin du Logis-Vieux",
    "experience": "Assez confortable",
    "tel": "+33 5 61 48 25 24",
    "web_link": "http://www.restaurant-linstant.fr"
  },
  {
    "name": "Le Cambusier",
    "street": "6 rue des Cordiers",
    "city": " Saint-Malo",
    "postal_code": " 35400",
    "state": " France6 rue des Cordiers",
    "experience": "Assez confortable",
    "tel": "+33 2 99 20 18 42",
    "web_link": "http://www.cambusier.fr"
  },
  {
    "name": "Clamato",
    "street": "80 rue de Charonne",
    "city": " Paris",
    "postal_code": " 75011",
    "state": " France80 rue de Charonne",
    "experience": "Assez confortable",
    "tel": "+33 1 43 72 74 53",
    "web_link": "http://www.clamato-charonne.fr"
  },
  {
    "name": "Au Lion d'Or - Chez Théo",
    "street": "5 rue Village-Neuf",
    "city": " Rosenau",
    "postal_code": " 68128",
    "state": " France5 rue Village-Neuf",
    "experience": "Confortable",
    "tel": "+33 3 89 68 21 97",
    "web_link": "http://www.auliondor-rosenau.com"
  },
  {
    "name": "Côté Bistro",
    "street": "25 rue de Chambord",
    "city": " Montlivault",
    "postal_code": " 41350",
    "state": " France25 rue de Chambord",
    "experience": "Assez confortable",
    "tel": "+33 2 54 20 62 30",
    "web_link": "http://www.lamaisondacote.fr"
  },
  {
    "name": "Le Bouchon Bourguignon",
    "street": "1 rue Albert-Thibaudet",
    "city": " Tournus",
    "postal_code": " 71700",
    "state": " France1 rue Albert-Thibaudet",
    "experience": "Assez confortable",
    "tel": "+33 3 85 51 13 52",
    "web_link": "http://www.restaurant-greuze.fr"
  },
  {
    "name": "Le Villaret",
    "street": "13 rue Ternaux",
    "city": " Paris",
    "postal_code": " 75011",
    "state": " France13 rue Ternaux",
    "experience": "Assez confortable",
    "tel": "+33 1 43 57 75 56",
    "web_link": "https://www.instagram.com/explore/tags/yesmichelinguide/"
  },
  {
    "name": "Gabbro",
    "street": "55 Rue Saint-André",
    "city": " Lille",
    "postal_code": " 59000",
    "state": " France55 Rue Saint-André",
    "experience": "Assez confortable",
    "tel": "+33 3 20 39 05 51",
    "web_link": "https://www.instagram.com/explore/tags/yesmichelinguide/"
  },
  {
    "name": "Épices et Tout",
    "street": "15 avenue Carnot",
    "city": " Alès",
    "postal_code": " 30100",
    "state": " France15 avenue Carnot",
    "experience": "Assez confortable",
    "tel": "+33 4 66 52 43 79",
    "web_link": "http://www.epicesettout.fr"
  },
  {
    "name": "Une Table à Deux",
    "street": "10 rue de la Pleau",
    "city": " Toulouse",
    "postal_code": " 31000",
    "state": " France10 rue de la Pleau",
    "experience": "Assez confortable",
    "tel": "+33 5 61 25 03 51",
    "web_link": "http://www.unetableadeux.fr"
  },
  {
    "name": "Le Gavrinis",
    "street": "1 rue de l'Ile-Gavrinis",
    "city": " Baden",
    "postal_code": " 56870",
    "state": " France1 rue de l'Ile-Gavrinis",
    "experience": "Confortable",
    "tel": "+33 2 97 57 00 82",
    "web_link": "http://www.gavrinis.com"
  },
  {
    "name": "La Ferme Saint-Sébastien",
    "street": "chemin de Bourion",
    "city": " Charroux",
    "postal_code": " 03140",
    "state": " Francechemin de Bourion",
    "experience": "Confortable",
    "tel": "+33 4 70 56 88 83",
    "web_link": "tel:+33 4 70 56 88 83"
  },
  {
    "name": "Café Lavinal",
    "street": "place Desquet",
    "city": " Pauillac",
    "postal_code": " 33250",
    "state": " Franceplace Desquet",
    "experience": "Assez confortable",
    "tel": "+33 5 57 75 00 09",
    "web_link": "http://www.jmcazes.com/fr/cafe-lavinal"
  },
  {
    "name": "L'Embellie",
    "street": "le Bourg",
    "city": " Sainte-Cécile",
    "postal_code": " 71250",
    "state": " Francele Bourg",
    "experience": "Confortable",
    "tel": "+33 3 85 50 81 81",
    "web_link": "http://www.restaurant-lembellie.com"
  },
  {
    "name": "Auberge de l'Île",
    "street": "3 place Bouchard",
    "city": " L'Île-Bouchard",
    "postal_code": " 37220",
    "state": " France3 place Bouchard",
    "experience": "Confortable",
    "tel": "+33 2 47 58 51 07",
    "web_link": "http://www.aubergedelile.fr"
  },
  {
    "name": "Au Bon Pichet",
    "street": "10 place du Marché-aux-Choux",
    "city": " Sélestat",
    "postal_code": " 67600",
    "state": " France10 place du Marché-aux-Choux",
    "experience": "Assez confortable",
    "tel": "+33 3 88 82 96 65",
    "web_link": "http://www.aubonpichet.fr"
  },
  {
    "name": "Cheval d'Or",
    "street": "21 rue de la Villette",
    "city": " Paris",
    "postal_code": " 75019",
    "state": " France21 rue de la Villette",
    "experience": "Assez confortable",
    "tel": "+33 9 54 12 21 77",
    "web_link": "http://chevaldorparis.com"
  },
  {
    "name": "Auberge de l'Abbaye",
    "street": "5 route de l'Abbaye",
    "city": " Hambye",
    "postal_code": " 50450",
    "state": " France5 route de l'Abbaye",
    "experience": "Confortable",
    "tel": "+33 2 33 61 42 19",
    "web_link": "http://www.aubergedelabbayehambye.com"
  },
  {
    "name": "La Table",
    "street": "1 traverse de Jas",
    "city": " Les Ribas",
    "postal_code": " Tourtour",
    "state": " 83690",
    "experience": "Assez confortable. Nos établissements de charme.",
    "tel": "+33 4 94 70 55 95",
    "web_link": "http://www.latable.fr"
  },
  {
    "name": "L'Hibiscus",
    "street": "175 rue de Bourgogne",
    "city": " Orléans",
    "postal_code": " 45000",
    "state": " France175 rue de Bourgogne",
    "experience": "Assez confortable",
    "tel": "+33 2 38 72 74 11",
    "web_link": "http://www.hibiscus-restaurant.com"
  },
  {
    "name": "L'Atelier Bistrot",
    "street": "24 rue Duchelas",
    "city": " Langoëlan",
    "postal_code": " 56160",
    "state": " France24 rue Duchelas",
    "experience": "Assez confortable",
    "tel": "+33 2 97 51 37 81",
    "web_link": "https://www.instagram.com/explore/tags/yesmichelinguide/"
  },
  {
    "name": "Le Buffet",
    "street": "22 rue de la Gare",
    "city": " Isbergues",
    "postal_code": " 62330",
    "state": " France22 rue de la Gare",
    "experience": "Confortable. Nos établissements de charme.",
    "tel": "+33 3 21 25 82 40",
    "web_link": "http://www.le-buffet.com"
  },
  {
    "name": "Le Lisita",
    "street": "2 boulevard des Arènes",
    "city": " Nîmes",
    "postal_code": " 30000",
    "state": " France2 boulevard des Arènes",
    "experience": "Confortable",
    "tel": "+33 4 66 67 29 15",
    "web_link": "http://www.lelisita.com"
  },
  {
    "name": "Dépôt Légal",
    "street": "6 rue des Petits-Champs",
    "city": " Paris",
    "postal_code": " 75002",
    "state": " France6 rue des Petits-Champs",
    "experience": "Assez confortable",
    "tel": "+33 1 42 61 67 07",
    "web_link": "http://www.depotlegalparis.com"
  },
  {
    "name": "Ô en Couleur",
    "street": "9 rue de Beaugency",
    "city": " Oucques",
    "postal_code": " 41290",
    "state": " France9 rue de Beaugency",
    "experience": "Confortable",
    "tel": "+33 2 54 23 20 41",
    "web_link": "http://www.o-en-couleur-oucques.com"
  },
  {
    "name": "Comptoir des Voyageurs",
    "street": "Place de l'Église",
    "city": " Locronan",
    "postal_code": " 29180",
    "state": " FrancePlace de l'Église",
    "experience": "Assez confortable",
    "tel": "+33 2 98 91 70 74",
    "web_link": "http://www.comptoir-des-voyageurs.fr"
  },
  {
    "name": "Les Reflets",
    "street": "227 rue Roger-Salengro",
    "city": " La Roche-sur-Yon",
    "postal_code": " 85000",
    "state": " France227 rue Roger-Salengro",
    "experience": "Assez confortable",
    "tel": "+33 9 83 25 83 71",
    "web_link": "http://www.restaurantlesreflets.fr"
  },
  {
    "name": "La Table d'Auzeville",
    "street": "35 chemin de l'Église",
    "city": " Auzeville-Tolosane",
    "postal_code": " 31320",
    "state": " France35 chemin de l'Église",
    "experience": "Confortable",
    "tel": "+33 5 61 13 42 30",
    "web_link": "http://www.la-table-dauzeville.fr"
  },
  {
    "name": "Le Mangevins",
    "street": "7 rue des Herbes",
    "city": " Tain-l'Hermitage",
    "postal_code": " 26600",
    "state": " France7 rue des Herbes",
    "experience": "Assez confortable",
    "tel": "+33 4 75 08 00 76",
    "web_link": "https://www.instagram.com/explore/tags/yesmichelinguide/"
  },
  {
    "name": "Aromatic",
    "street": "15 rue du Chariot-d'Or",
    "city": " Lyon",
    "postal_code": " 69004",
    "state": " France15 rue du Chariot-d'Or",
    "experience": "Assez confortable",
    "tel": "+33 4 78 23 73 61",
    "web_link": "http://www.aromaticrestaurant.fr"
  },
  {
    "name": "Le Bourbon",
    "street": "5 place de la Victoire",
    "city": " Yssingeaux",
    "postal_code": " 43200",
    "state": " France5 place de la Victoire",
    "experience": "Confortable",
    "tel": "+33 4 71 59 06 54",
    "web_link": "http://www.le-bourbon.com"
  },
  {
    "name": "L'Océanide",
    "street": "2 rue Paul-Bellamy",
    "city": " Nantes",
    "postal_code": " 44000",
    "state": " France2 rue Paul-Bellamy",
    "experience": "Confortable",
    "tel": "+33 2 40 20 32 28",
    "web_link": "http://www.restaurant-oceanide.fr"
  },
  {
    "name": "Pica Pica",
    "street": "20 boulevard Jean-Jaurès",
    "city": " Béziers",
    "postal_code": " 34500",
    "state": " France20 boulevard Jean-Jaurès",
    "experience": "Assez confortable",
    "tel": "+33 4 48 11 03 40",
    "web_link": "https://www.instagram.com/explore/tags/yesmichelinguide/"
  },
  {
    "name": "La Maison Tourangelle",
    "street": "9 route des Grottes-Pétrifiantes",
    "city": " Savonnières",
    "postal_code": " 37510",
    "state": " France9 route des Grottes-Pétrifiantes",
    "experience": "Confortable",
    "tel": "+33 2 47 50 30 05",
    "web_link": "http://www.lamaisontourangelle.com"
  },
  {
    "name": "La Quincaillerie",
    "street": "30 Rue de l'Hôtel de Ville",
    "city": " Montendre",
    "postal_code": " 17130",
    "state": " France30 Rue de l'Hôtel de Ville",
    "experience": "Assez confortable",
    "tel": "+33 5 46 70 42 41",
    "web_link": "http://restaurantlaquincaillerie.eatbu.com"
  },
  {
    "name": "Le Bistro Urbain",
    "street": "15 boulevard Ledru-Rollin",
    "city": " Montpellier",
    "postal_code": " 34000",
    "state": " France15 boulevard Ledru-Rollin",
    "experience": "Assez confortable",
    "tel": "+33 9 83 22 42 61",
    "web_link": "http://www.bistrourbain.com"
  },
  {
    "name": "Le Brézoune",
    "street": "15 rue de la Poste",
    "city": " Ploufragan",
    "postal_code": " 22440",
    "state": " France15 rue de la Poste",
    "experience": "Assez confortable",
    "tel": "+33 2 96 01 59 37",
    "web_link": "http://lebrezoune.fr"
  },
  {
    "name": "Le Jardin des Brouches",
    "street": "1 boulevard de l'Hypéron",
    "city": " Bagnères-de-Bigorre",
    "postal_code": " 65200",
    "state": " France1 boulevard de l'Hypéron",
    "experience": "Confortable",
    "tel": "+33 5 62 91 07 95",
    "web_link": "http://www.lejardindesbrouches.fr"
  },
  {
    "name": "Le Carillon",
    "street": "1 rue Roger-Salengro",
    "city": " Liessies",
    "postal_code": " 59740",
    "state": " France1 rue Roger-Salengro",
    "experience": "Confortable",
    "tel": "+33 3 27 61 80 21",
    "web_link": "http://www.le-carillon.com"
  },
  {
    "name": "La Table du Moulin",
    "street": "3 Rue du 8 Mai 1945",
    "city": " La Roche-l'Abeille",
    "postal_code": " 87800",
    "state": " France3 Rue du 8 Mai 1945",
    "experience": "Assez confortable",
    "tel": "+33 5 55 00 22 03",
    "web_link": "tel:+33 5 55 00 22 03"
  },
  {
    "name": "Auberge de Ti-Coz",
    "street": "4 Hent-Koz",
    "city": " Ty-Sanquer",
    "postal_code": " 29000",
    "state": " France4 Hent-Koz",
    "experience": "Confortable. Nos établissements de charme.",
    "tel": "+33 2 98 94 50 02",
    "web_link": "http://www.restaurantticoz.com"
  },
  {
    "name": "Auberge des Tilleuls",
    "street": "8 place de l'Église",
    "city": " Messigny-et-Vantoux",
    "postal_code": " 21380",
    "state": " France8 place de l'Église",
    "experience": "Assez confortable",
    "tel": "+33 3 80 35 45 22",
    "web_link": "http://www.restaurant-tilleuls.fr"
  },
  {
    "name": "Au Coin des Halles",
    "street": "9 rue Gambetta",
    "city": " Langeais",
    "postal_code": " 37130",
    "state": " France9 rue Gambetta",
    "experience": "Assez confortable",
    "tel": "+33 2 47 96 37 25",
    "web_link": "http://www.aucoindeshalles.com"
  },
  {
    "name": "Sodade",
    "street": "21 avenue du Président-Georges-Pompidou",
    "city": " Chaudes-Aigues",
    "postal_code": " 15110",
    "state": " France21 avenue du Président-Georges-Pompidou",
    "experience": "Assez confortable",
    "tel": "+33 4 71 60 10 23",
    "web_link": "http://www.sergevieira.com"
  },
  {
    "name": "Le Clos Monteils",
    "street": "7 chemin du Moulin",
    "city": " Monteils",
    "postal_code": " 82300",
    "state": " France7 chemin du Moulin",
    "experience": "Assez confortable",
    "tel": "+33 5 63 93 03 51",
    "web_link": "http://www.leclosmonteils.fr"
  },
  {
    "name": "Danton",
    "street": "8 rue Danton",
    "city": " Lyon",
    "postal_code": " 69003",
    "state": " France8 rue Danton",
    "experience": "Assez confortable",
    "tel": "+33 4 37 48 00 10",
    "web_link": "https://www.instagram.com/explore/tags/yesmichelinguide/"
  },
  {
    "name": "La Table d'Inomoto",
    "street": "85 rue Nationale",
    "city": " Saint-André-de-Cubzac",
    "postal_code": " 33240",
    "state": " France85 rue Nationale",
    "experience": "Assez confortable",
    "tel": "+33 9 74 56 17 63",
    "web_link": "http://www.latabledinomoto.fr"
  },
  {
    "name": "Auberge du Parc Carola",
    "street": "48 route de Bergheim",
    "city": " Ribeauvillé",
    "postal_code": " 68150",
    "state": " France48 route de Bergheim",
    "experience": "Confortable",
    "tel": "+33 3 89 86 05 75",
    "web_link": "http://www.auberge-parc-carola.com"
  },
  {
    "name": "L'Oseille",
    "street": "3 rue St-Augustin",
    "city": " Paris",
    "postal_code": " 75002",
    "state": " France3 rue St-Augustin",
    "experience": "Assez confortable",
    "tel": "+33 1 45 08 13 76",
    "web_link": "http://www.loseille-bourse.com"
  },
  {
    "name": "Les Plaisirs",
    "street": "2 rue Puada dau Gourguet",
    "city": " Peillon",
    "postal_code": " 06440",
    "state": " France2 rue Puada dau Gourguet",
    "experience": "Assez confortable",
    "tel": "+33 4 93 87 06 01",
    "web_link": "http://www.lesplaisirs-peillon.com"
  },
  {
    "name": "La Verrière",
    "street": "15 avenue des Reynats",
    "city": " Chancelade",
    "postal_code": " 24650",
    "state": " France15 avenue des Reynats",
    "experience": "Assez confortable",
    "tel": "+33 5 53 03 53 59",
    "web_link": "tel:+33 5 53 03 53 59"
  },
  {
    "name": "Auberge de Port Vallières",
    "street": "195 quai des Bateliers",
    "city": " Fondettes",
    "postal_code": " 37230",
    "state": " France195 quai des Bateliers",
    "experience": "Confortable",
    "tel": "+33 2 47 42 24 04",
    "web_link": "http://www.auberge-de-port-vallieres.fr"
  },
  {
    "name": "Le Bistrot",
    "street": "chemin des Imberts",
    "city": " route de Salernes",
    "postal_code": " Lorgues",
    "state": " 83510",
    "experience": "Assez confortable",
    "tel": "+33 4 94 60 43 51",
    "web_link": "tel:+33 4 94 60 43 51"
  },
  {
    "name": "Winstub À Côté",
    "street": "2 rue Rogg-Haas",
    "city": " Sierentz",
    "postal_code": " 68510",
    "state": " France2 rue Rogg-Haas",
    "experience": "Assez confortable",
    "tel": "+33 9 83 37 16 80",
    "web_link": "http://www.auberge-saintlaurent.fr"
  },
  {
    "name": "Voyages des sens",
    "street": "33 rue Principale",
    "city": " Treffort",
    "postal_code": " 01370",
    "state": " France33 rue Principale",
    "experience": "Confortable",
    "tel": "+33 4 74 51 39 94",
    "web_link": "http://www.voyagesdessens.com"
  },
  {
    "name": "Ô Saveurs",
    "street": "10 rue Jules-Ferry",
    "city": " Saint-Brieuc",
    "postal_code": " 22000",
    "state": " France10 rue Jules-Ferry",
    "experience": "Confortable",
    "tel": "+33 2 96 94 05 34",
    "web_link": "http://www.osaveurs-restaurant.com"
  },
  {
    "name": "Les Flots",
    "street": "52 boulevard de la Mer",
    "city": " Châtelaillon-Plage",
    "postal_code": " 17340",
    "state": " France52 boulevard de la Mer",
    "experience": "Assez confortable",
    "tel": "+33 5 46 56 23 42",
    "web_link": "http://www.les-flots.fr"
  },
  {
    "name": "La Chaize Gourmande",
    "street": "2 place du Marché",
    "city": " La Chaize-Giraud",
    "postal_code": " 85220",
    "state": " France2 place du Marché",
    "experience": "Assez confortable",
    "tel": "+33 2 51 22 75 33",
    "web_link": "http://www.lachaizegourmande.com"
  },
  {
    "name": "Kokoro",
    "street": "2 rue des Boulangers",
    "city": " Paris",
    "postal_code": " 75005",
    "state": " France2 rue des Boulangers",
    "experience": "Assez confortable",
    "tel": "+33 1 44 07 13 29",
    "web_link": "http://www.restaurantkokoro.blogspot.fr"
  },
  {
    "name": "Bistrot Gourmand",
    "street": "Le Fornet",
    "city": " Val-d'Isère",
    "postal_code": " 73150",
    "state": " FranceLe Fornet",
    "experience": "Assez confortable",
    "tel": "+33 4 79 00 21 42",
    "web_link": "tel:+33 4 79 00 21 42"
  },
  {
    "name": "La Fleur de Sel",
    "street": "15 route du Portelin",
    "city": " Cevins",
    "postal_code": " 73730",
    "state": " France15 route du Portelin",
    "experience": "Confortable",
    "tel": "+33 4 79 37 49 98",
    "web_link": "tel:+33 4 79 37 49 98"
  },
  {
    "name": "Le Jardin",
    "street": "16 rue de la Redoute",
    "city": " Haguenau",
    "postal_code": " 67500",
    "state": " France16 rue de la Redoute",
    "experience": "Très confortable",
    "tel": "+33 3 88 93 29 39",
    "web_link": "http://www.lejardinhaguenau.fr"
  },
  {
    "name": "Bistrot Constant",
    "street": "25 rue de l'Usine",
    "city": " Montech",
    "postal_code": " 82700",
    "state": " France25 rue de l'Usine",
    "experience": "Assez confortable",
    "tel": "+33 5 63 24 63 02",
    "web_link": "tel:+33 5 63 24 63 02"
  },
  {
    "name": "Le François II",
    "street": "5 place Aristide-Briand",
    "city": " Couëron",
    "postal_code": " 44220",
    "state": " France5 place Aristide-Briand",
    "experience": "Confortable",
    "tel": "+33 2 40 38 32 32",
    "web_link": "http://www.francois2.com"
  },
  {
    "name": "Esperluète",
    "street": "6 rue Favorin",
    "city": " Arles",
    "postal_code": " 13200",
    "state": " France6 rue Favorin",
    "experience": "Assez confortable",
    "tel": "+33 4 90 93 10 43",
    "web_link": "http://www.esperluete-arles.com"
  },
  {
    "name": "La Colombe",
    "street": "663 route de Toulon",
    "city": " Hyères",
    "postal_code": " 83400",
    "state": " France663 route de Toulon",
    "experience": "Confortable",
    "tel": "+33 4 94 35 35 16",
    "web_link": "http://www.restaurantlacolombe.com"
  },
  {
    "name": "L'Escargot",
    "street": "30 rue du Maréchal-Leclerc",
    "city": " Saumur",
    "postal_code": " 49400",
    "state": " France30 rue du Maréchal-Leclerc",
    "experience": "Assez confortable",
    "tel": "+33 2 41 51 20 88",
    "web_link": "https://www.instagram.com/explore/tags/yesmichelinguide/"
  },
  {
    "name": "La Toile à Beurre",
    "street": "82 rue Saint-Pierre",
    "city": " Ancenis",
    "postal_code": " 44150",
    "state": " France82 rue Saint-Pierre",
    "experience": "Assez confortable",
    "tel": "+33 2 40 98 89 64",
    "web_link": "http://www.latoileabeurre.com"
  },
  {
    "name": "Ttotta",
    "street": "Espace Ibarrondoan",
    "city": " Saint-Pée-sur-Nivelle",
    "postal_code": " 64310",
    "state": " FranceEspace Ibarrondoan",
    "experience": "Assez confortable",
    "tel": "+33 5 59 47 03 55",
    "web_link": "http://www.ttotta.fr"
  },
  {
    "name": "Iida-Ya",
    "street": "18 rue Arney",
    "city": " Dole",
    "postal_code": " 39100",
    "state": " France18 rue Arney",
    "experience": "Assez confortable",
    "tel": "+33 3 84 70 98 73",
    "web_link": "http://www.iida-ya.fr"
  },
  {
    "name": "Le Vioben",
    "street": "30 Ar Palud",
    "city": " Landéda",
    "postal_code": " 29870",
    "state": " France30 Ar Palud",
    "experience": "Assez confortable",
    "tel": "+33 2 98 04 96 77",
    "web_link": "tel:+33 2 98 04 96 77"
  },
  {
    "name": "La Forêt",
    "street": "22 rue de Verdun",
    "city": " Senonches",
    "postal_code": " 28250",
    "state": " France22 rue de Verdun",
    "experience": "Confortable",
    "tel": "+33 2 37 37 78 50",
    "web_link": "http://www.hoteldelaforet-senonches.com"
  },
  {
    "name": "Quai 17",
    "street": "17 quai Maréchal-de-Lattre-de-Tassigny",
    "city": " Sète",
    "postal_code": " 34200",
    "state": " France17 quai Maréchal-de-Lattre-de-Tassigny",
    "experience": "Confortable",
    "tel": "+33 4 67 74 71 91",
    "web_link": "http://www.legrandhotelsete.com"
  },
  {
    "name": "La Croix d'Or",
    "street": "6 rue de la Herse",
    "city": " Le Pin-la-Garenne",
    "postal_code": " 61400",
    "state": " France6 rue de la Herse",
    "experience": "Confortable",
    "tel": "+33 2 33 83 80 33",
    "web_link": "http://lacroixdor.free.fr"
  },
  {
    "name": "Au Bon Accueil",
    "street": "14 rue de Monttessuy",
    "city": " Paris",
    "postal_code": " 75007",
    "state": " France14 rue de Monttessuy",
    "experience": "Confortable",
    "tel": "+33 1 47 05 46 11",
    "web_link": "http://www.aubonaccueilparis.com"
  },
  {
    "name": "Le Moulin Fouret",
    "street": "2 route du Moulin-Fouret",
    "city": " à Saint-Aubin-le-Vertueux",
    "postal_code": " Bernay",
    "state": " 27300",
    "experience": "Confortable",
    "tel": "+33 2 32 43 19 95",
    "web_link": "http://www.lemoulinfouret.fr"
  },
  {
    "name": "Les Quatre Saisons",
    "street": "3 route du Frenz",
    "city": " Le Frenz",
    "postal_code": " 68820",
    "state": " France3 route du Frenz",
    "experience": "Assez confortable",
    "tel": "+33 3 89 82 28 61",
    "web_link": "tel:+33 3 89 82 28 61"
  },
  {
    "name": "Sémantème",
    "street": "73 rue Masséna",
    "city": " Lyon",
    "postal_code": " 69006",
    "state": " France73 rue Masséna",
    "experience": "Assez confortable",
    "tel": "+33 6 46 58 36 90",
    "web_link": "http://www.restaurant-semanteme-lyon.fr"
  },
  {
    "name": "Le Capucin Gourmand",
    "street": "1520 route de Genève",
    "city": " Vougy",
    "postal_code": " 74130",
    "state": " France1520 route de Genève",
    "experience": "Confortable",
    "tel": "+33 4 50 34 03 50",
    "web_link": "http://www.lecapucingourmand.com"
  },
  {
    "name": "Hôtel de France",
    "street": "1 rue Marx-Dormoy",
    "city": " Montmarault",
    "postal_code": " 03390",
    "state": " France1 rue Marx-Dormoy",
    "experience": "Confortable",
    "tel": "+33 4 70 07 60 26",
    "web_link": "tel:+33 4 70 07 60 26"
  },
  {
    "name": "La Boria",
    "street": "3 cours du Palais",
    "city": " Privas",
    "postal_code": " 07000",
    "state": " France3 cours du Palais",
    "experience": "Assez confortable. Nos établissements de charme.",
    "tel": "+33 4 75 64 48 48",
    "web_link": "tel:+33 4 75 64 48 48"
  },
  {
    "name": "Bistrot des Anges",
    "street": "rue de l'Ouest",
    "city": " Le Cannet",
    "postal_code": " 06110",
    "state": " Francerue de l'Ouest",
    "experience": "Assez confortable",
    "tel": "+33 4 92 18 18 28",
    "web_link": "tel:+33 4 92 18 18 28"
  },
  {
    "name": "La Poule d'Or",
    "street": "52 rue Royale",
    "city": " Puymirol",
    "postal_code": " 47270",
    "state": " France52 rue Royale",
    "experience": "Assez confortable. Nos établissements de charme.",
    "tel": "+33 5 53 95 31 46",
    "web_link": "http://www.aubergade.com"
  },
  {
    "name": "L'Auberge du Pas de Vent",
    "street": "281 avenue Pas-de-Vent",
    "city": " Pouillon",
    "postal_code": " 40350",
    "state": " France281 avenue Pas-de-Vent",
    "experience": "Confortable",
    "tel": "+33 5 58 98 34 65",
    "web_link": "http://www.auberge-dupasdevent.com"
  },
  {
    "name": "Le Théâtre",
    "street": "8 place Mendes-France",
    "city": " Épernay",
    "postal_code": " 51200",
    "state": " France8 place Mendes-France",
    "experience": "Confortable",
    "tel": "+33 3 26 58 88 19",
    "web_link": "http://www.epernay-rest-letheatre.com"
  },
  {
    "name": "Le Cent 33",
    "street": "139 rue du Jardin-Public",
    "city": " Bordeaux",
    "postal_code": " 33000",
    "state": " France139 rue du Jardin-Public",
    "experience": "Assez confortable",
    "tel": "+33 5 56 15 90 40",
    "web_link": "http://www.cent33.com"
  },
  {
    "name": "La Petite Ourse",
    "street": "48 boulevard de la Liberté",
    "city": " Rennes",
    "postal_code": " 35000",
    "state": " France48 boulevard de la Liberté",
    "experience": "Assez confortable",
    "tel": "+33 9 52 84 33 61",
    "web_link": "http://restaurantlapetiteourse.com"
  },
  {
    "name": "Au Pont du Corbeau",
    "street": "21 quai St-Nicolas",
    "city": " Strasbourg",
    "postal_code": " 67000",
    "state": " France21 quai St-Nicolas",
    "experience": "Assez confortable",
    "tel": "+33 3 88 35 60 68",
    "web_link": "https://www.instagram.com/explore/tags/yesmichelinguide/"
  },
  {
    "name": "Balsamique",
    "street": "13 place du Général-de-Gaulle",
    "city": " Wambrechies",
    "postal_code": " 59118",
    "state": " France13 place du Général-de-Gaulle",
    "experience": "Assez confortable",
    "tel": "+33 3 20 93 68 55",
    "web_link": "http://www.balsamique-restaurant.com"
  },
  {
    "name": "L'Atelier L'Art des Mets",
    "street": "500 route de Robion",
    "city": " Taillades",
    "postal_code": " 84300",
    "state": " France500 route de Robion",
    "experience": "Assez confortable",
    "tel": "+33 4 90 72 37 55",
    "web_link": "http://www.latelierlartdesmets.fr"
  },
  {
    "name": "Le Local",
    "street": "455 Littoral Frédéric-Mistral",
    "city": " Toulon",
    "postal_code": " 83000",
    "state": " France455 Littoral Frédéric-Mistral",
    "experience": "Assez confortable",
    "tel": "+33 4 94 20 61 32",
    "web_link": "http://www.restaurant-lelocal.fr"
  },
  {
    "name": "Auberge du Terroir",
    "street": "Le Bourg",
    "city": " Servon",
    "postal_code": " 50170",
    "state": " FranceLe Bourg",
    "experience": "Confortable",
    "tel": "+33 2 33 60 17 92",
    "web_link": "https://www.instagram.com/explore/tags/yesmichelinguide/"
  },
  {
    "name": "Arbequina",
    "street": "21 rue de la République",
    "city": " Thuir",
    "postal_code": " 66300",
    "state": " France21 rue de la République",
    "experience": "Assez confortable",
    "tel": "+33 4 68 34 46 64",
    "web_link": "tel:+33 4 68 34 46 64"
  },
  {
    "name": "L'Équilibre",
    "street": "10 place de la Libération",
    "city": " Balma",
    "postal_code": " 31130",
    "state": " France10 place de la Libération",
    "experience": "Assez confortable",
    "tel": "+33 5 61 45 70 43",
    "web_link": "http://www.restaurant-lequilibre.fr"
  },
  {
    "name": "Le Bistro d'en Face",
    "street": "1 rue Fénelon",
    "city": " Bergerac",
    "postal_code": " 24100",
    "state": " France1 rue Fénelon",
    "experience": "Assez confortable",
    "tel": "+33 5 53 61 34 06",
    "web_link": "https://www.instagram.com/explore/tags/yesmichelinguide/"
  },
  {
    "name": "Au Côte d'Argent",
    "street": "1 digue Gaston-Berthe",
    "city": " Calais",
    "postal_code": " 62100",
    "state": " France1 digue Gaston-Berthe",
    "experience": "Confortable",
    "tel": "+33 3 21 34 68 07",
    "web_link": "http://www.cotedargent.com"
  },
  {
    "name": "Le Coq d'Or",
    "street": "7 place du Champ-de-Foire",
    "city": " Chénérailles",
    "postal_code": " 23130",
    "state": " France7 place du Champ-de-Foire",
    "experience": "Confortable",
    "tel": "+33 5 55 62 30 83",
    "web_link": "http://www.restaurant-coqdor-23.com"
  },
  {
    "name": "Mets et Vins",
    "street": "11 rue de la République",
    "city": " Bourg-en-Bresse",
    "postal_code": " 01000",
    "state": " France11 rue de la République",
    "experience": "Confortable",
    "tel": "+33 4 74 45 20 78",
    "web_link": "http://www.restaurant-metsetvins.com"
  },
  {
    "name": "Les Grands Arbres - Verte Vallée",
    "street": "10 rue Alfred-Hartmann",
    "city": " Munster",
    "postal_code": " 68140",
    "state": " France10 rue Alfred-Hartmann",
    "experience": "Très confortable",
    "tel": "+33 3 89 77 15 15",
    "web_link": "tel:+33 3 89 77 15 15"
  },
  {
    "name": "Vegan Gorilla",
    "street": "7 rue du Lycée",
    "city": " Nice",
    "postal_code": " 06000",
    "state": " France7 rue du Lycée",
    "experience": "Assez confortable",
    "tel": "+33 4 93 81 32 98",
    "web_link": "http://www.restaurant-vegan.fr"
  },
  {
    "name": "La Télécabine",
    "street": "27 rue de la Tour",
    "city": " Chamonix-Mont-Blanc",
    "postal_code": " 74400",
    "state": " France27 rue de la Tour",
    "experience": "Confortable",
    "tel": "+33 4 50 47 04 66",
    "web_link": "tel:+33 4 50 47 04 66"
  },
  {
    "name": "La Pointe du Cap Coz",
    "street": "\n                                \n                                    \n                                        1 Offre\n                                    \n                                \n                            \n                                    \n                                        \n                                            1 Offre\n                                        \n                                    \n                                ",
    "experience": "Confortable",
    "tel": "+33 2 98 56 01 63",
    "web_link": "javascript:void(0)"
  },
  {
    "name": "Chai l'amère Kolette",
    "street": "Parc d'activités de Kernours",
    "city": " Kervignac",
    "postal_code": " 56700",
    "state": " FranceParc d'activités de Kernours",
    "experience": "Confortable",
    "tel": "+33 2 97 36 28 74",
    "web_link": "tel:+33 2 97 36 28 74"
  },
  {
    "name": "L'Aubépine",
    "street": "13 boulevard Jean-Mathon",
    "city": " Aubenas",
    "postal_code": " 07200",
    "state": " France13 boulevard Jean-Mathon",
    "experience": "Assez confortable",
    "tel": "+33 4 75 35 01 28",
    "web_link": "http://www.restaurant-aubepine.fr"
  },
  {
    "name": "Auberge de Bardigues",
    "street": "Le Bourg",
    "city": " Bardigues",
    "postal_code": " 82340",
    "state": " FranceLe Bourg",
    "experience": "Assez confortable",
    "tel": "+33 5 63 39 05 58",
    "web_link": "http://www.aubergedebardigues.com"
  },
  {
    "name": "Côté Bastide",
    "street": "4 rue de l'Abattoir",
    "city": " Sainte-Foy-la-Grande",
    "postal_code": " 33220",
    "state": " France4 rue de l'Abattoir",
    "experience": "Confortable",
    "tel": "+33 5 57 46 14 02",
    "web_link": "http://www.cote-bastide.org"
  },
  {
    "name": "Le Vauban",
    "street": "22 quai Caligny",
    "city": " Cherbourg-en-Cotentin",
    "postal_code": " 50100",
    "state": " France22 quai Caligny",
    "experience": "Confortable",
    "tel": "+33 2 33 43 10 11",
    "web_link": "http://www.levauban-cherbourg.fr"
  },
  {
    "name": "L'As des Neiges",
    "street": "624 rue du Centre",
    "city": " Les Gets",
    "postal_code": " 74260",
    "state": " France624 rue du Centre",
    "experience": "Confortable",
    "tel": "+33 4 50 80 62 53",
    "web_link": "https://www.instagram.com/explore/tags/yesmichelinguide/"
  },
  {
    "name": "La Capitelle",
    "street": "1 rue du Boulanger",
    "city": " Mirmande",
    "postal_code": " 26270",
    "state": " France1 rue du Boulanger",
    "experience": "Assez confortable",
    "tel": "+33 4 75 63 02 72",
    "web_link": "http://www.lacapitelle.com"
  },
  {
    "name": "La Table de Léo",
    "street": "Le Bourg",
    "city": " Saint-Avit-Sénieur",
    "postal_code": " 24440",
    "state": " FranceLe Bourg",
    "experience": "Assez confortable",
    "tel": "+33 5 53 57 89 15",
    "web_link": "http://www.latabledeleo.fr"
  },
  {
    "name": "Jouvence",
    "street": "172 bis rue du Faubourg-St-Antoine",
    "city": " Paris",
    "postal_code": " 75012",
    "state": " France172 bis rue du Faubourg-St-Antoine",
    "experience": "Assez confortable",
    "tel": "+33 1 56 58 04 73",
    "web_link": "tel:+33 1 56 58 04 73"
  },
  {
    "name": "1er Mets",
    "street": "Place Saint-Maurice",
    "city": " Annecy",
    "postal_code": " 74000",
    "state": " FrancePlace Saint-Maurice",
    "experience": "Assez confortable",
    "tel": "+33 4 57 09 10 54",
    "web_link": "http://www.restaurant-1ermets.fr"
  },
  {
    "name": "Au Fil des Saisons",
    "street": "3 rue de la Libération",
    "city": " Étupes",
    "postal_code": " 25460",
    "state": " France3 rue de la Libération",
    "experience": "Assez confortable",
    "tel": "+33 3 81 94 17 12",
    "web_link": "http://www.aufildessaisons.eu"
  },
  {
    "name": "Chez Michel",
    "street": "10 rue de Belzunce",
    "city": " Paris",
    "postal_code": " 75010",
    "state": " France10 rue de Belzunce",
    "experience": "Assez confortable",
    "tel": "+33 1 44 53 06 20",
    "web_link": "http://www.restaurantchezmichel.fr"
  },
  {
    "name": "La Grange des Agapes",
    "street": "7 rue du 11-novembre",
    "city": " Cogolin",
    "postal_code": " 83310",
    "state": " France7 rue du 11-novembre",
    "experience": "Confortable",
    "tel": "+33 4 94 54 60 97",
    "web_link": "http://www.grangeagapes.com"
  },
  {
    "name": "Le Saint Joseph",
    "street": "100 boulevard de la République",
    "city": " La Garenne-Colombes",
    "postal_code": " 92250",
    "state": " France100 boulevard de la République",
    "experience": "Assez confortable",
    "tel": "+33 1 42 42 64 49",
    "web_link": "http://www.lesaintjoseph-restaurant.fr"
  },
  {
    "name": "Le Patio by Lou Caléou",
    "street": "23 place de la Libération",
    "city": " Sommières",
    "postal_code": " 30250",
    "state": " France23 place de la Libération",
    "experience": "Assez confortable",
    "tel": "+33 4 66 77 50 98",
    "web_link": "tel:+33 4 66 77 50 98"
  },
  {
    "name": "Chez Mon Jules",
    "street": "5 rue Étienne-de-Vesc",
    "city": " Vesc",
    "postal_code": " 26220",
    "state": " France5 rue Étienne-de-Vesc",
    "experience": "Assez confortable",
    "tel": "+33 4 75 04 20 74",
    "web_link": "http://www.chezmonjules.com"
  },
  {
    "name": "Le Gantxo",
    "street": "quartier du Port",
    "city": " Guiche",
    "postal_code": " 64520",
    "state": " Francequartier du Port",
    "experience": "Assez confortable",
    "tel": "+33 5 59 56 46 63",
    "web_link": "http://www.restaurant-le-gantxo.fr"
  },
  {
    "name": "Winstub Arnold",
    "street": "98 route des Vins",
    "city": " Itterswiller",
    "postal_code": " 67140",
    "state": " France98 route des Vins",
    "experience": "Confortable",
    "tel": "+33 3 88 85 50 58",
    "web_link": "http://www.hotel-arnold.com"
  },
  {
    "name": "La Charrette Bleue",
    "street": "5 chemin Barjavel",
    "city": " Condorcet",
    "postal_code": " 26110",
    "state": " France5 chemin Barjavel",
    "experience": "Assez confortable",
    "tel": "+33 4 75 27 72 33",
    "web_link": "http://www.lacharrettebleue.net"
  },
  {
    "name": "L'Oustalet Maïanen",
    "street": "16 avenue Lamartine",
    "city": " Maillane",
    "postal_code": " 13910",
    "state": " France16 avenue Lamartine",
    "experience": "Confortable",
    "tel": "+33 4 90 95 74 60",
    "web_link": "tel:+33 4 90 95 74 60"
  },
  {
    "name": "La Corniche",
    "street": "hameau de Castagneto",
    "city": " San-Martino-di-Lota",
    "postal_code": " 20200",
    "state": " Francehameau de Castagneto",
    "experience": "Confortable",
    "tel": "+33 4 95 31 40 98",
    "web_link": "http://www.hotel-lacorniche.com"
  },
  {
    "name": "Le Clos aux Roses",
    "street": "2 rue du Lavoir",
    "city": " Chédigny",
    "postal_code": " 37310",
    "state": " France2 rue du Lavoir",
    "experience": "Assez confortable. Nos établissements de charme.",
    "tel": "+33 2 47 92 20 29",
    "web_link": "http://www.leclosauxroses.com"
  },
  {
    "name": "Bistrot du Pollet",
    "street": "23 rue Tête-de-Boeuf",
    "city": " Dieppe",
    "postal_code": " 76200",
    "state": " France23 rue Tête-de-Boeuf",
    "experience": "Assez confortable",
    "tel": "+33 2 35 84 68 57",
    "web_link": "http://www.le-bistrot-du-pollet.zenchef.com"
  },
  {
    "name": "Au Raisin d'Or",
    "street": "1 rue de l'Église",
    "city": " Zimmerbach",
    "postal_code": " 68230",
    "state": " France1 rue de l'Église",
    "experience": "Assez confortable",
    "tel": "+33 3 89 71 05 69",
    "web_link": "http://www.raisindor.fr"
  },
  {
    "name": "Restaurant de la Gare",
    "street": "4 rue des Ormelets",
    "city": " Ploubalay",
    "postal_code": " 22650",
    "state": " France4 rue des Ormelets",
    "experience": "Confortable",
    "tel": "+33 2 96 27 25 16",
    "web_link": "http://www.restaurant-la-gare-ploubalay.com"
  },
  {
    "name": "Le Bistrot d'à Côté",
    "street": "16 rue des Minimes",
    "city": " Clermont-Ferrand",
    "postal_code": " 63000",
    "state": " France16 rue des Minimes",
    "experience": "Assez confortable",
    "tel": "+33 4 73 29 16 16",
    "web_link": "http://www.restaurant-bistrotdacote.fr"
  },
  {
    "name": "Le Colvert",
    "street": "8 rue d'en Boyer",
    "city": " Saint-Lieux-lès-Lavaur",
    "postal_code": " 81500",
    "state": " France8 rue d'en Boyer",
    "experience": "Confortable",
    "tel": "+33 5 63 41 32 47",
    "web_link": "http://www.restaurantlecolvert.com"
  },
  {
    "name": "L'Amandier de Mougins",
    "street": "48 avenue Jean-Charles-Mallet",
    "city": " Mougins",
    "postal_code": " 06250",
    "state": " France48 avenue Jean-Charles-Mallet",
    "experience": "Confortable",
    "tel": "+33 4 93 90 00 91",
    "web_link": "http://www.amandier.fr"
  },
  {
    "name": "Saperlipopette !",
    "street": "9 place du Théâtre",
    "city": " Puteaux",
    "postal_code": " 92800",
    "state": " France9 place du Théâtre",
    "experience": "Confortable",
    "tel": "+33 1 41 37 00 00",
    "web_link": "http://www.saperlipopette1.fr"
  },
  {
    "name": "Madame",
    "street": "52 rue Henri-Deglin",
    "city": " Nancy",
    "postal_code": " 54000",
    "state": " France52 rue Henri-Deglin",
    "experience": "Assez confortable",
    "tel": "+33 3 83 22 37 18",
    "web_link": "http://www.madamerestaurant.fr"
  },
  {
    "name": "Auberge La Gaillotière",
    "street": "Lieu-dit La Gaillotière",
    "city": " Château-Thébaud",
    "postal_code": " 44690",
    "state": " FranceLieu-dit La Gaillotière",
    "experience": "Confortable",
    "tel": "+33 2 28 21 31 16",
    "web_link": "tel:+33 2 28 21 31 16"
  },
  {
    "name": "L'Espérance - Stéphane Carbone",
    "street": "512 rue Abbé-Alix",
    "city": " Hérouville-Saint-Clair",
    "postal_code": " 14200",
    "state": " France512 rue Abbé-Alix",
    "experience": "Confortable",
    "tel": "+33 2 31 44 97 10",
    "web_link": "tel:+33 2 31 44 97 10"
  },
  {
    "name": "Le Pélican",
    "street": "13 place Georges-Gaudet",
    "city": " Geneston",
    "postal_code": " 44140",
    "state": " France13 place Georges-Gaudet",
    "experience": "Confortable",
    "tel": "+33 2 40 04 77 88",
    "web_link": "http://www.restaurantlepelican.fr"
  },
  {
    "name": "La Table d'Antoine",
    "street": "\n                                \n                                    \n                                        1 Offre\n                                    \n                                \n                            \n                                    \n                                        \n                                            1 Offre\n                                        \n                                    \n                                ",
    "experience": "Confortable",
    "tel": "+33 4 70 98 99 71",
    "web_link": "javascript:void(0)"
  },
  {
    "name": "Auberge de la Fontaine du Berger",
    "street": "167 route de Limoges",
    "city": " Orcines",
    "postal_code": " 63870",
    "state": " France167 route de Limoges",
    "experience": "Assez confortable",
    "tel": "+33 4 73 62 10 52",
    "web_link": "http://www.auberge.fr"
  },
  {
    "name": "Le Bon Accueil",
    "street": "1 rue de Laval",
    "city": " Richardménil",
    "postal_code": " 54630",
    "state": " France1 rue de Laval",
    "experience": "Confortable",
    "tel": "+33 3 83 25 62 10",
    "web_link": "http://www.aubonaccueil-restaurant.com"
  },
  {
    "name": "Estaminet à l'Agneau",
    "street": "185 route de Lyon",
    "city": " Illkirch-Graffenstaden",
    "postal_code": " 67400",
    "state": " France185 route de Lyon",
    "experience": "Confortable",
    "tel": "+33 3 88 66 06 58",
    "web_link": "http://www.agneau-illkirch.fr"
  },
  {
    "name": "L'Atelier",
    "street": "2 rue Voltaire",
    "city": " Périgueux",
    "postal_code": " 24000",
    "state": " France2 rue Voltaire",
    "experience": "Assez confortable",
    "tel": "+33 5 53 04 56 71",
    "web_link": "http://www.restaurant-perigueux-atelier.com"
  },
  {
    "name": "Café A",
    "street": "280 allée du Jeune-Bayard",
    "city": " Saint-Martin-d'Uriage",
    "postal_code": " 38410",
    "state": " France280 allée du Jeune-Bayard",
    "experience": "Assez confortable. Nos établissements de charme.",
    "tel": "+33 4 58 17 48 30",
    "web_link": "http://www.maisonaribert.com"
  },
  {
    "name": "Aux Trois Pastoureaux",
    "street": "31 rue André-Gillet",
    "city": " Châteaudun",
    "postal_code": " 28200",
    "state": " France31 rue André-Gillet",
    "experience": "Confortable",
    "tel": "+33 2 37 45 74 40",
    "web_link": "tel:+33 2 37 45 74 40"
  },
  {
    "name": "Akashon",
    "street": "50 place de l'Aiguille-du-Midi",
    "city": " Chamonix-Mont-Blanc",
    "postal_code": " 74400",
    "state": " France50 place de l'Aiguille-du-Midi",
    "experience": "Assez confortable",
    "tel": "+33 4 50 54 55 56",
    "web_link": "tel:+33 4 50 54 55 56"
  },
  {
    "name": "L'Assiette au Jardin",
    "street": "9 rue du Robinet",
    "city": " Noirmoutier-en-l'Île",
    "postal_code": " 85330",
    "state": " France9 rue du Robinet",
    "experience": "Assez confortable",
    "tel": "+33 2 51 54 93 95",
    "web_link": "https://lassietteaujardin.fr"
  },
  {
    "name": "Le Médiéval",
    "street": "24 Grand'Rue",
    "city": " Puy-l'Évêque",
    "postal_code": " 46700",
    "state": " France24 Grand'Rue",
    "experience": "Assez confortable",
    "tel": "+33 9 86 31 80 88",
    "web_link": "http://www.lemedieval-puyleveque.fr"
  },
  {
    "name": "La Table des Armaillis",
    "street": "97 rue des Prés",
    "city": " Les Saisies",
    "postal_code": " 73620",
    "state": " France97 rue des Prés",
    "experience": "Confortable. Nos établissements de charme.",
    "tel": "+33 4 79 89 26 15",
    "web_link": "http://www.latabledesarmaillis.fr"
  },
  {
    "name": "Le Bistrot Pontarlier",
    "street": "place du 8-Mai-1945",
    "city": " Port-Lesney",
    "postal_code": " 39330",
    "state": " Franceplace du 8-Mai-1945",
    "experience": "Assez confortable",
    "tel": "+33 3 84 37 83 27",
    "web_link": "tel:+33 3 84 37 83 27"
  },
  {
    "name": "La Ruche",
    "street": "13 quai du Docteur-Jules-Bouvat",
    "city": " Saint-Péray",
    "postal_code": " 07130",
    "state": " France13 quai du Docteur-Jules-Bouvat",
    "experience": "Assez confortable",
    "tel": "+33 9 82 40 44 38",
    "web_link": "http://www.laruche-saintperay.com"
  },
  {
    "name": "Le P'tit Bouchon",
    "street": "66 rue Bernard-Palissy",
    "city": " Gien",
    "postal_code": " 45500",
    "state": " France66 rue Bernard-Palissy",
    "experience": "Assez confortable",
    "tel": "+33 2 38 67 84 40",
    "web_link": "http://www.ptitbouchon.fr"
  },
  {
    "name": "A Mandria di Pigna",
    "street": "Pigna",
    "city": " 20220",
    "postal_code": " FrancePigna",
    "state": " 20220",
    "experience": "Assez confortable",
    "tel": "+33 4 95 32 71 24",
    "web_link": "tel:+33 4 95 32 71 24"
  },
  {
    "name": "L'Univers",
    "street": "Place de la République",
    "city": " Villefranche-de-Rouergue",
    "postal_code": " 12200",
    "state": " FrancePlace de la République",
    "experience": "Assez confortable",
    "tel": "+33 5 65 45 15 63",
    "web_link": "http://www.lunivers-villefranche.com"
  },
  {
    "name": "Côté Saisons",
    "street": "10 avenue de la Côte-Vermeille",
    "city": " Laroque-des-Albères",
    "postal_code": " 66740",
    "state": " France10 avenue de la Côte-Vermeille",
    "experience": "Assez confortable. Nos établissements de charme.",
    "tel": "+33 4 34 12 36 51",
    "web_link": "http://www.cotesaisons.com"
  },
  {
    "name": "Au Bon Accueil",
    "street": "23 place St-Michel",
    "city": " Juvigny-sous-Andaine",
    "postal_code": " 61140",
    "state": " France23 place St-Michel",
    "experience": "Confortable",
    "tel": "+33 2 33 38 10 04",
    "web_link": "tel:+33 2 33 38 10 04"
  },
  {
    "name": "Cheval Blanc",
    "street": "1 rue de Bisel",
    "city": " Feldbach",
    "postal_code": " 68640",
    "state": " France1 rue de Bisel",
    "experience": "Confortable",
    "tel": "+33 3 89 25 81 86",
    "web_link": "http://www.cheval-blanc-feldbach.fr"
  },
  {
    "name": "L'Espérance",
    "street": "21 rue du Docteur-Louis-Marçon",
    "city": " Bandol",
    "postal_code": " 83150",
    "state": " France21 rue du Docteur-Louis-Marçon",
    "experience": "Confortable",
    "tel": "+33 4 94 05 85 29",
    "web_link": "http://www.lesperance-bandol.com"
  },
  {
    "name": "O'Plaisir des Sens",
    "street": "Sous la Grande Vigne",
    "city": " La Roque-Gageac",
    "postal_code": " 24250",
    "state": " FranceSous la Grande Vigne",
    "experience": "Confortable",
    "tel": "+33 5 53 29 58 53",
    "web_link": "http://www.o-plaisirdessens.com"
  },
  {
    "name": "Le Beaujolais",
    "street": "40 rue du Maréchal-Foch",
    "city": " Belleville",
    "postal_code": " 69220",
    "state": " France40 rue du Maréchal-Foch",
    "experience": "Assez confortable",
    "tel": "+33 4 74 66 05 31",
    "web_link": "http://www.restaurant-le-beaujolais.com"
  },
  {
    "name": "Auberge du Prieuré Normand",
    "street": "1 place de la République",
    "city": " Gasny",
    "postal_code": " 27620",
    "state": " France1 place de la République",
    "experience": "Confortable",
    "tel": "+33 2 32 52 10 01",
    "web_link": "http://www.aubergeduprieurenormand.com"
  },
  {
    "name": "Le Jean Moulin",
    "street": "45 rue de Sèze",
    "city": " Lyon",
    "postal_code": " 69006",
    "state": " France45 rue de Sèze",
    "experience": "Assez confortable",
    "tel": "+33 4 78 37 37 97",
    "web_link": "http://www.lejeanmoulin-lyon.com"
  },
  {
    "name": "Restaurant Arcé",
    "street": "route du col d'Ispéguy",
    "city": " Saint-Étienne-de-Baïgorry",
    "postal_code": " 64430",
    "state": " Franceroute du col d'Ispéguy",
    "experience": "Confortable. Nos établissements de charme.",
    "tel": "+33 5 59 37 40 14",
    "web_link": "http://www.hotel-arce.com"
  },
  {
    "name": "Auberge des Deux Magots",
    "street": "1 place du Bouffay",
    "city": " La Roche-Bernard",
    "postal_code": " 56130",
    "state": " France1 place du Bouffay",
    "experience": "Confortable",
    "tel": "+33 2 99 90 60 75",
    "web_link": "tel:+33 2 99 90 60 75"
  },
  {
    "name": "L'Artichaut",
    "street": "15 bis rue St-Firmin",
    "city": " Montpellier",
    "postal_code": " 34000",
    "state": " France15 bis rue St-Firmin",
    "experience": "Assez confortable",
    "tel": "+33 4 67 67 91 86",
    "web_link": "http://www.artichaut-restaurant.com"
  },
  {
    "name": "L'Alicanta",
    "street": "route de Meyrueis",
    "city": " Le Rozier",
    "postal_code": " 48150",
    "state": " Franceroute de Meyrueis",
    "experience": "Assez confortable",
    "tel": "+33 5 65 62 60 25",
    "web_link": "http://www.hotel-doussiere.com"
  },
  {
    "name": "L'Air de Famille",
    "street": "6 rue Jules-Chalande",
    "city": " Toulouse",
    "postal_code": " 31000",
    "state": " France6 rue Jules-Chalande",
    "experience": "Assez confortable",
    "tel": "+33 5 67 06 54 08",
    "web_link": "http://lairdefamilletoulouse.wordpress.com"
  },
  {
    "name": "La Table du Relais du Bois St-Georges",
    "street": "132 cours Genet",
    "city": " Saintes",
    "postal_code": " 17100",
    "state": " France132 cours Genet",
    "experience": "Très confortable",
    "tel": "+33 5 46 93 50 99",
    "web_link": "tel:+33 5 46 93 50 99"
  },
  {
    "name": "Côté Saveurs",
    "street": "Place Louis Fontanges",
    "city": " Villefranche-de-Rouergue",
    "postal_code": " 12200",
    "state": " FrancePlace Louis Fontanges",
    "experience": "Confortable",
    "tel": "+33 5 65 65 83 64",
    "web_link": "http://www.cote-saveurs.fr"
  },
  {
    "name": "Hostellerie d'Héloïse",
    "street": "7 route de Mâcon",
    "city": " Cluny",
    "postal_code": " 71250",
    "state": " France7 route de Mâcon",
    "experience": "Confortable",
    "tel": "+33 3 85 59 05 65",
    "web_link": "http://www.hostelleriedheloise.com"
  },
  {
    "name": "Le Vert d'O",
    "street": "94 rue de Guernevé",
    "city": " Saint-Gildas-de-Rhuys",
    "postal_code": " 56730",
    "state": " France94 rue de Guernevé",
    "experience": "Confortable",
    "tel": "+33 2 97 45 25 25",
    "web_link": "http://www.levertdo.fr"
  },
  {
    "name": "L'Épicurien",
    "street": "42 place Jean-Jaurès",
    "city": " Albi",
    "postal_code": " 81000",
    "state": " France42 place Jean-Jaurès",
    "experience": "Confortable",
    "tel": "+33 5 63 53 10 70",
    "web_link": "http://www.restaurantlepicurien.com"
  },
  {
    "name": "La Table D'eux - Laurent Le Berrigaud",
    "street": "route côtière D152",
    "city": " Guidel",
    "postal_code": " 56520",
    "state": " Franceroute côtière D152",
    "experience": "Confortable",
    "tel": "+33 2 97 32 42 07",
    "web_link": "tel:+33 2 97 32 42 07"
  },
  {
    "name": "Auberge Pyrénées Cévennes",
    "street": "106 rue de la Folie-Méricourt",
    "city": " Paris",
    "postal_code": " 75011",
    "state": " France106 rue de la Folie-Méricourt",
    "experience": "Assez confortable",
    "tel": "+33 1 43 57 33 78",
    "web_link": "tel:+33 1 43 57 33 78"
  },
  {
    "name": "Daniel et Denise Créqui",
    "street": "156 rue de Créqui",
    "city": " Lyon",
    "postal_code": " 69003",
    "state": " France156 rue de Créqui",
    "experience": "Assez confortable",
    "tel": "+33 4 78 60 66 53",
    "web_link": "http://www.daniel-et-denise.fr"
  },
  {
    "name": "La Fleur de Sel",
    "street": "17 rue Haute",
    "city": " Honfleur",
    "postal_code": " 14600",
    "state": " France17 rue Haute",
    "experience": "Confortable",
    "tel": "+33 2 31 89 01 92",
    "web_link": "http://www.lafleurdesel-honfleur.com"
  },
  {
    "name": "La Merenda",
    "street": "4 rue Raoul-Bosio",
    "city": " Nice",
    "postal_code": " 06000",
    "state": " France4 rue Raoul-Bosio",
    "experience": "Assez confortable",
    "tel": "www.lamerenda.net",
    "web_link": "https://www.instagram.com/explore/tags/yesmichelinguide/"
  },
  {
    "name": "Le Rabelais",
    "street": "8 rue Auguste-Fabre",
    "city": " Saint-Chamas",
    "postal_code": " 13250",
    "state": " France8 rue Auguste-Fabre",
    "experience": "Confortable",
    "tel": "+33 4 90 50 84 40",
    "web_link": "http://www.restaurant-le-rabelais.com"
  },
  {
    "name": "Abri Soba",
    "street": "10 rue Saulnier",
    "city": " Paris",
    "postal_code": " 75009",
    "state": " France10 rue Saulnier",
    "experience": "Assez confortable",
    "tel": "+33 1 45 23 51 68",
    "web_link": "https://www.instagram.com/explore/tags/yesmichelinguide/"
  },
  {
    "name": "L'Auberge...",
    "street": "2590 route de Bailleul",
    "city": " Caëstre",
    "postal_code": " 59190",
    "state": " France2590 route de Bailleul",
    "experience": "Assez confortable",
    "tel": "+33 3 28 40 25 25",
    "web_link": "http://www.laubergecaestre.com"
  },
  {
    "name": "Nino",
    "street": "28 rue Peyrolières",
    "city": " Toulouse",
    "postal_code": " 31000",
    "state": " France28 rue Peyrolières",
    "experience": "Assez confortable",
    "tel": "+33 5 61 38 50 79",
    "web_link": "http://www.nino-restaurant.com"
  },
  {
    "name": "Ahizpak Le Restaurant des Sœurs",
    "street": "avenue de Biarritz",
    "city": " Bidart",
    "postal_code": " 64210",
    "state": " Franceavenue de Biarritz",
    "experience": "Assez confortable",
    "tel": "+33 5 59 22 58 81",
    "web_link": "https://www.instagram.com/explore/tags/yesmichelinguide/"
  },
  {
    "name": "La Ferme du Vert",
    "street": "Rue du Vert",
    "city": " Wierre-Effroy",
    "postal_code": " 62720",
    "state": " FranceRue du Vert",
    "experience": "Assez confortable",
    "tel": "+33 3 21 87 67 00",
    "web_link": "tel:+33 3 21 87 67 00"
  },
  {
    "name": "La Safranière",
    "street": "52 rue du Lavoir",
    "city": " Chabrits",
    "postal_code": " 48000",
    "state": " France52 rue du Lavoir",
    "experience": "Confortable",
    "tel": "+33 4 66 49 31 54",
    "web_link": "http://www.restaurant-la-safraniere.fr"
  },
  {
    "name": "Le Cerisier",
    "street": "1 rue Saint-Joseph",
    "city": " Tournon-sur-Rhône",
    "postal_code": " 07300",
    "state": " France1 rue Saint-Joseph",
    "experience": "Confortable",
    "tel": "+33 4 75 08 91 02",
    "web_link": "http://www.lecerisier-restaurant.fr"
  },
  {
    "name": "L'Angle Saint-Laurent",
    "street": "2 rue des Bouchers",
    "city": " Bayeux",
    "postal_code": " 14400",
    "state": " France2 rue des Bouchers",
    "experience": "Confortable",
    "tel": "+33 2 31 92 03 01",
    "web_link": "http://www.langlesaintlaurent.com"
  },
  {
    "name": "Substrat",
    "street": "7 rue Pailleron",
    "city": " Lyon",
    "postal_code": " 69004",
    "state": " France7 rue Pailleron",
    "experience": "Assez confortable",
    "tel": "+33 4 78 29 14 93",
    "web_link": "http://www.substrat-restaurant.com"
  },
  {
    "name": "Auberge La Grange aux Loups",
    "street": "8 rue du 11-Novembre",
    "city": " Apremont",
    "postal_code": " 60300",
    "state": " France8 rue du 11-Novembre",
    "experience": "Confortable",
    "tel": "+33 3 44 25 33 79",
    "web_link": "http://www.lagrangeauxloups.com"
  },
  {
    "name": "La Table du Fleuve",
    "street": "2 place du Port",
    "city": " Bourg-Charente",
    "postal_code": " 16200",
    "state": " France2 place du Port",
    "experience": "Assez confortable. Nos établissements de charme.",
    "tel": "+33 5 45 81 30 54",
    "web_link": "http://www.laribaudiere.com"
  },
  {
    "name": "Restaurant Dimofski",
    "street": "2 Quartier de la Gare",
    "city": " Wœlfling-lès-Sarreguemines",
    "postal_code": " 57200",
    "state": " France2 Quartier de la Gare",
    "experience": "Confortable",
    "tel": "+33 3 87 02 38 21",
    "web_link": "https://www.instagram.com/explore/tags/yesmichelinguide/"
  },
  {
    "name": "La Poutre",
    "street": "25 Grande-Rue",
    "city": " Bonlieu",
    "postal_code": " 39130",
    "state": " France25 Grande-Rue",
    "experience": "Confortable",
    "tel": "+33 3 84 25 57 77",
    "web_link": "http://www.aubergedelapoutre.com"
  },
  {
    "name": "Saku Restaurant",
    "street": "27 rue Rachais",
    "city": " Lyon",
    "postal_code": " 69007",
    "state": " France27 rue Rachais",
    "experience": "Assez confortable",
    "tel": "+33 4 78 69 45 31",
    "web_link": "https://www.instagram.com/explore/tags/yesmichelinguide/"
  },
  {
    "name": "L'Auberge du Laminak",
    "street": "Route de Nouzonville",
    "city": " Montcy-Notre-Dame",
    "postal_code": " 08090",
    "state": " FranceRoute de Nouzonville",
    "experience": "Confortable",
    "tel": "+33 3 24 33 37 55",
    "web_link": "tel:+33 3 24 33 37 55"
  },
  {
    "name": "Un Grain de Saveur",
    "street": "8 rue de l'Abbé-Girard",
    "city": " Clermont-Ferrand",
    "postal_code": " 63000",
    "state": " France8 rue de l'Abbé-Girard",
    "experience": "Assez confortable",
    "tel": "+33 4 73 90 30 59",
    "web_link": "http://www.ungraindesaveur.fr"
  },
  {
    "name": "La Parenthèse",
    "street": "26 place du Châtelet",
    "city": " Orléans",
    "postal_code": " 45000",
    "state": " France26 place du Châtelet",
    "experience": "Assez confortable",
    "tel": "+33 2 38 62 07 50",
    "web_link": "http://www.restaurant-la-parenthese.com"
  },
  {
    "name": "Auberge de Combes",
    "street": "Le bourg",
    "city": " Combes",
    "postal_code": " 34240",
    "state": " FranceLe bourg",
    "experience": "Assez confortable",
    "tel": "+33 4 67 95 66 55",
    "web_link": "http://www.aubergedecombes.com"
  },
  {
    "name": "Bistrot DuPont",
    "street": "5 place Charles-de-Gaulle",
    "city": " Pont-Sainte-Marie",
    "postal_code": " 10150",
    "state": " France5 place Charles-de-Gaulle",
    "experience": "Assez confortable",
    "tel": "+33 3 25 80 90 99",
    "web_link": "http://www.bistrotdupont.com"
  },
  {
    "name": "Le Chardonnay",
    "street": "1 place Philippe-Marcombes",
    "city": " Clermont-Ferrand",
    "postal_code": " 63000",
    "state": " France1 place Philippe-Marcombes",
    "experience": "Assez confortable. Nos établissements de charme.",
    "tel": "+33 4 73 26 79 95",
    "web_link": "http://www.lechardonnay.fr"
  },
  {
    "name": "52 Faubourg St-Denis",
    "street": "52 rue du Faubourg-St-Denis",
    "city": " Paris",
    "postal_code": " 75010",
    "state": " France52 rue du Faubourg-St-Denis",
    "experience": "Assez confortable",
    "tel": "www.faubourgstden",
    "web_link": "https://www.instagram.com/explore/tags/yesmichelinguide/"
  },
  {
    "name": "Au Petit Relais",
    "street": "Grande-Rue",
    "city": " Coligny",
    "postal_code": " 01270",
    "state": " FranceGrande-Rue",
    "experience": "Confortable",
    "tel": "+33 4 74 30 10 07",
    "web_link": "http://www.aupetitrelais.fr"
  },
  {
    "name": "Au Cheval Blanc",
    "street": "\n                                \n                                    \n                                        3 Offres\n                                    \n                                \n                            \n                                    \n                                        \n                                            3 Offres\n                                        \n                                    \n                                ",
    "experience": "Confortable",
    "tel": "+33 3 88 70 17 11",
    "web_link": "https://content.static-bookatable.com/ServePromotionAttachment.aspx?id=124624"
  },
  {
    "name": "Le Réciproque",
    "street": "14 rue Ferdinand-Flocon",
    "city": " Paris",
    "postal_code": " 75018",
    "state": " France14 rue Ferdinand-Flocon",
    "experience": "Assez confortable",
    "tel": "+33 9 86 37 80 77",
    "web_link": "tel:+33 9 86 37 80 77"
  },
  {
    "name": "Le Quai",
    "street": "\n                                \n                                    \n                                        2 Offres\n                                    \n                                \n                            \n                                    \n                                        \n                                            2 Offres\n                                        \n                                    \n                                ",
    "experience": "Assez confortable",
    "tel": "+33 4 75 07 05 90",
    "web_link": "https://content.static-bookatable.com/ServePromotionAttachment.aspx?id=126019"
  },
  {
    "name": "Le Lancelot",
    "street": "12 rue des Déportés",
    "city": " Chilleurs-aux-Bois",
    "postal_code": " 45170",
    "state": " France12 rue des Déportés",
    "experience": "Confortable",
    "tel": "+33 2 38 32 91 15",
    "web_link": "http://www.restaurantlelancelot.com"
  },
  {
    "name": "Auberge du Château",
    "street": "67 montée du Château",
    "city": " Bressieux",
    "postal_code": " 38870",
    "state": " France67 montée du Château",
    "experience": "Confortable",
    "tel": "+33 4 74 20 91 01",
    "web_link": "http://www.aubergedebressieux.fr"
  },
  {
    "name": "La Vierge",
    "street": "58 rue de la Réunion",
    "city": " Paris",
    "postal_code": " 75020",
    "state": " France58 rue de la Réunion",
    "experience": "Assez confortable",
    "tel": "+33 1 43 67 51 15",
    "web_link": "https://www.instagram.com/explore/tags/yesmichelinguide/"
  },
  {
    "name": "L'Affranchi",
    "street": "33 rue des Cornières",
    "city": " Agen",
    "postal_code": " 47000",
    "state": " France33 rue des Cornières",
    "experience": "Confortable",
    "tel": "+33 5 53 95 67 59",
    "web_link": "http://www.restaurant-laffranchi.com"
  },
  {
    "name": "Auberge du Pont",
    "street": "1 route de Marcenat",
    "city": " Billy",
    "postal_code": " 03260",
    "state": " France1 route de Marcenat",
    "experience": "Assez confortable",
    "tel": "+33 4 70 43 50 09",
    "web_link": "http://www.auberge-du-pont-billy.fr"
  },
  {
    "name": "Le Tilleul de Sully",
    "street": "Le bourg",
    "city": " Montgibaud",
    "postal_code": " 19210",
    "state": " FranceLe bourg",
    "experience": "Assez confortable",
    "tel": "+33 5 55 98 01 96",
    "web_link": "https://www.instagram.com/explore/tags/yesmichelinguide/"
  },
  {
    "name": "In Extremis",
    "street": "7 place de l'Atre",
    "city": " Épinal",
    "postal_code": " 88000",
    "state": " France7 place de l'Atre",
    "experience": "Assez confortable",
    "tel": "+33 3 29 35 46 41",
    "web_link": "http://www.restaurant-inextremis.com"
  },
  {
    "name": "Le Poisson d'Avril",
    "street": "19 rue de Men-Meur",
    "city": " Guilvinec",
    "postal_code": " 29730",
    "state": " France19 rue de Men-Meur",
    "experience": "Assez confortable",
    "tel": "+33 2 98 58 23 83",
    "web_link": "http://www.lepoissondavril.fr"
  },
  {
    "name": "Kisin",
    "street": "9 rue de Ponthieu",
    "city": " Paris",
    "postal_code": " 75008",
    "state": " France9 rue de Ponthieu",
    "experience": "Assez confortable",
    "tel": "+33 1 71 26 77 28",
    "web_link": "http://www.udon-kisin.fr"
  },
  {
    "name": "La Pie qui Couette",
    "street": "1 rue Guizot",
    "city": " Nîmes",
    "postal_code": " 30000",
    "state": " France1 rue Guizot",
    "experience": "Assez confortable",
    "tel": "+33 4 66 23 59 04",
    "web_link": "https://www.instagram.com/explore/tags/yesmichelinguide/"
  },
  {
    "name": "Le Garriane",
    "street": "15 rue Valette",
    "city": " Perpignan",
    "postal_code": " 66000",
    "state": " France15 rue Valette",
    "experience": "Assez confortable",
    "tel": "+33 4 68 67 07 44",
    "web_link": "https://www.instagram.com/explore/tags/yesmichelinguide/"
  },
  {
    "name": "Auberge de la Roche",
    "street": "10 Route Nationale 23",
    "city": " Saint-Jean-de-Linières",
    "postal_code": " 49070",
    "state": " France10 Route Nationale 23",
    "experience": "Confortable",
    "tel": "+33 2 41 39 72 21",
    "web_link": "http://www.auberge-de-la-roche.com"
  },
  {
    "name": "La Flèche d'Argent",
    "street": "5 place Allard",
    "city": " Royat",
    "postal_code": " 63130",
    "state": " France5 place Allard",
    "experience": "Confortable",
    "tel": "+33 4 73 35 63 63",
    "web_link": "http://www.princesse-flore-hotel.com"
  },
  {
    "name": "Le Carré de l'Ange",
    "street": "Palais des Évêques",
    "city": " Saint-Lizier",
    "postal_code": " 09190",
    "state": " FrancePalais des Évêques",
    "experience": "Confortable. Nos établissements de charme.",
    "tel": "+33 5 61 65 65 65",
    "web_link": "tel:+33 5 61 65 65 65"
  },
  {
    "name": "Bistrot St-Sauveur",
    "street": "87 rue Saint-Sauveur",
    "city": " Le Cannet",
    "postal_code": " 06110",
    "state": " France87 rue Saint-Sauveur",
    "experience": "Assez confortable",
    "tel": "+33 4 93 94 42 03",
    "web_link": "http://www.bistrotsaintsauveur.fr"
  },
  {
    "name": "Monsieur",
    "street": "40 rue des Filatiers",
    "city": " Toulouse",
    "postal_code": " 31000",
    "state": " France40 rue des Filatiers",
    "experience": "Assez confortable",
    "tel": "+33 5 61 25 07 07",
    "web_link": "http://www.maisonmarius.com"
  },
  {
    "name": "Le Terminus",
    "street": "avenue de la Gare",
    "city": " Cruzy",
    "postal_code": " 34310",
    "state": " Franceavenue de la Gare",
    "experience": "Assez confortable",
    "tel": "+33 4 67 89 71 26",
    "web_link": "http://www.leterminus-cote-gare.fr"
  },
  {
    "name": "Paris Méditerranée",
    "street": "47 rue Pierre-Semard",
    "city": " Sète",
    "postal_code": " 34200",
    "state": " France47 rue Pierre-Semard",
    "experience": "Assez confortable",
    "tel": "+33 4 67 74 97 73",
    "web_link": "https://www.instagram.com/explore/tags/yesmichelinguide/"
  },
  {
    "name": "Fine Gueule",
    "street": "2 rue de l'Hôtel de Ville",
    "city": " Nice",
    "postal_code": " 06300",
    "state": " France2 rue de l'Hôtel de Ville",
    "experience": "Assez confortable",
    "tel": "+33 4 93 80 21 64",
    "web_link": "tel:+33 4 93 80 21 64"
  },
  {
    "name": "Mets Mots",
    "street": "98 rue Fondaudège",
    "city": " Bordeaux",
    "postal_code": " 33000",
    "state": " France98 rue Fondaudège",
    "experience": "Assez confortable",
    "tel": "+33 5 57 83 38 24",
    "web_link": "http://www.metsmots.fr"
  },
  {
    "name": "Tempi Lenti",
    "street": "13 rue Gerbier",
    "city": " Paris",
    "postal_code": " 75011",
    "state": " France13 rue Gerbier",
    "experience": "Assez confortable",
    "tel": "+33 9 81 01 81 10",
    "web_link": "https://www.instagram.com/explore/tags/yesmichelinguide/"
  },
  {
    "name": "La Vieille Forge",
    "street": "32 rue d'Aha",
    "city": " Mesquer",
    "postal_code": " 44420",
    "state": " France32 rue d'Aha",
    "experience": "Confortable",
    "tel": "+33 2 40 42 62 68",
    "web_link": "http://www.vieilleforge.fr"
  },
  {
    "name": "Auberge du Moulin",
    "street": "36 rue des Moulins-du-Tot",
    "city": " Clères",
    "postal_code": " 76690",
    "state": " France36 rue des Moulins-du-Tot",
    "experience": "Confortable",
    "tel": "+33 2 35 33 62 76",
    "web_link": "http://www.aubergedumoulin.org"
  },
  {
    "name": "Le St-Georges",
    "street": "4 boulevard Maréchal-Foch",
    "city": " Palavas-les-Flots",
    "postal_code": " 34250",
    "state": " France4 boulevard Maréchal-Foch",
    "experience": "Confortable",
    "tel": "+33 4 67 68 31 38",
    "web_link": "http://www.restaurant-st-georges.fr"
  },
  {
    "name": "Saveurs de l'Abbaye",
    "street": "1 place St-Pallais",
    "city": " Saintes",
    "postal_code": " 17100",
    "state": " France1 place St-Pallais",
    "experience": "Confortable",
    "tel": "+33 5 46 94 17 91",
    "web_link": "http://www.saveurs-abbaye.com"
  },
  {
    "name": "L'Arôme",
    "street": "9 rue des 3 Rois",
    "city": " Marseille",
    "postal_code": " 13006",
    "state": " France9 rue des 3 Rois",
    "experience": "Assez confortable",
    "tel": "+33 4 91 42 88 80",
    "web_link": "https://www.instagram.com/explore/tags/yesmichelinguide/"
  },
  {
    "name": "Le Bréard",
    "street": "\n                                \n                                    \n                                        1 Offre\n                                    \n                                \n                            \n                                    \n                                        \n                                            1 Offre\n                                        \n                                    \n                                ",
    "experience": "Confortable",
    "tel": "+33 2 31 89 53 40",
    "web_link": "javascript:void(0)"
  },
  {
    "name": "Coteaux et Fourchettes",
    "street": "Route de Violès",
    "city": " Cairanne",
    "postal_code": " 84290",
    "state": " FranceRoute de Violès",
    "experience": "Confortable",
    "tel": "+33 4 90 66 35 99",
    "web_link": "http://www.coteauxetfourchettes.com"
  },
  {
    "name": "Auberge des Chenêts",
    "street": "10 route Nationale 6",
    "city": " Valloux",
    "postal_code": " 89200",
    "state": " France10 route Nationale 6",
    "experience": "Confortable. Nos établissements de charme.",
    "tel": "+33 3 86 34 23 34",
    "web_link": "https://www.instagram.com/explore/tags/yesmichelinguide/"
  },
  {
    "name": "Mensae",
    "street": "23 rue Melingue",
    "city": " Paris",
    "postal_code": " 75019",
    "state": " France23 rue Melingue",
    "experience": "Assez confortable",
    "tel": "+33 1 53 19 80 98",
    "web_link": "https://www.instagram.com/explore/tags/yesmichelinguide/"
  },
  {
    "name": "L'Alambic",
    "street": "8 rue Nicolas-Larbaud",
    "city": " Vichy",
    "postal_code": " 03200",
    "state": " France8 rue Nicolas-Larbaud",
    "experience": "Assez confortable",
    "tel": "+33 4 70 59 12 71",
    "web_link": "https://www.instagram.com/explore/tags/yesmichelinguide/"
  },
  {
    "name": "Le Central",
    "street": "4 rue d'Autremont",
    "city": " Coulon",
    "postal_code": " 79510",
    "state": " France4 rue d'Autremont",
    "experience": "Confortable",
    "tel": "+33 5 49 35 90 20",
    "web_link": "http://www.hotel-lecentral-coulon.com"
  },
  {
    "name": "À la Route d'Argent",
    "street": "1 route de Gabriac",
    "city": " Bozouls",
    "postal_code": " 12340",
    "state": " France1 route de Gabriac",
    "experience": "Confortable",
    "tel": "+33 5 65 44 92 27",
    "web_link": "http://www.laroutedargent.com"
  },
  {
    "name": "Restaurant de la Plage",
    "street": "1 place de l'Océan",
    "city": " Saint-Palais-sur-Mer",
    "postal_code": " 17420",
    "state": " France1 place de l'Océan",
    "experience": "Confortable",
    "tel": "+33 5 46 23 10 32",
    "web_link": "http://www.hoteldelaplage-stpalais.fr"
  },
  {
    "name": "Zen",
    "street": "8 rue de l'Échelle",
    "city": " Paris",
    "postal_code": " 75001",
    "state": " France8 rue de l'Échelle",
    "experience": "Assez confortable",
    "tel": "+33 1 42 61 93 99",
    "web_link": "tel:+33 1 42 61 93 99"
  },
  {
    "name": "Bistrot d'Antoine",
    "street": "27 rue de la Préfecture",
    "city": " Nice",
    "postal_code": " 06300",
    "state": " France27 rue de la Préfecture",
    "experience": "Assez confortable",
    "tel": "+33 4 93 85 29 57",
    "web_link": "https://www.instagram.com/explore/tags/yesmichelinguide/"
  },
  {
    "name": "Maison Joanto",
    "street": "chemin du Village",
    "city": " Briscous",
    "postal_code": " 64240",
    "state": " Francechemin du Village",
    "experience": "Assez confortable",
    "tel": "+33 5 59 20 27 70",
    "web_link": "http://www.maisonjoanto-restaurant.fr"
  },
  {
    "name": "Le Bistrot du Rocher",
    "street": "19 rue de Toulouse",
    "city": " Saint-Malo",
    "postal_code": " 35400",
    "state": " France19 rue de Toulouse",
    "experience": "Assez confortable",
    "tel": "+33 2 99 40 82 05",
    "web_link": "https://www.instagram.com/explore/tags/yesmichelinguide/"
  },
  {
    "name": "Le Grapiot",
    "street": "3 rue Bagier",
    "city": " Pupillin",
    "postal_code": " 39600",
    "state": " France3 rue Bagier",
    "experience": "Confortable. Nos établissements de charme.",
    "tel": "+33 3 84 37 49 44",
    "web_link": "http://www.legrapiot.com"
  },
  {
    "name": "Côté Sud",
    "street": "Route d'Orange",
    "city": " Uchaux",
    "postal_code": " 84100",
    "state": " FranceRoute d'Orange",
    "experience": "Confortable. Nos établissements de charme.",
    "tel": "+33 4 90 40 66 08",
    "web_link": "http://www.restaurantcotesud.com"
  },
  {
    "name": "Zest",
    "street": "32 cours de la Vilaine",
    "city": " Cesson-Sévigné",
    "postal_code": " 35510",
    "state": " France32 cours de la Vilaine",
    "experience": "Assez confortable",
    "tel": "+33 2 99 83 82 06",
    "web_link": "http://www.restaurant-zest.fr"
  },
  {
    "name": "La Rochette",
    "street": "500 lieu-dit La Rochette",
    "city": " Labaroche",
    "postal_code": " 68910",
    "state": " France500 lieu-dit La Rochette",
    "experience": "Confortable",
    "tel": "+33 3 89 49 80 40",
    "web_link": "http://www.larochette-hotel.fr"
  },
  {
    "name": "Art'zain",
    "street": "le bourg",
    "city": " Irissarry",
    "postal_code": " 64780",
    "state": " Francele bourg",
    "experience": "Assez confortable",
    "tel": "+33 5 59 37 23 83",
    "web_link": "http://www.restaurant-art-zain.fr"
  },
  {
    "name": "Auberge Le Centre Poitou",
    "street": "39 rue Nationale",
    "city": " Coulombiers",
    "postal_code": " 86600",
    "state": " France39 rue Nationale",
    "experience": "Confortable",
    "tel": "+33 5 49 60 90 15",
    "web_link": "http://www.centre-poitou.com"
  },
  {
    "name": "Otto",
    "street": "150 rue Jean-Mermoz",
    "city": " Marseille",
    "postal_code": " 13008",
    "state": " France150 rue Jean-Mermoz",
    "experience": "Assez confortable",
    "tel": "+33 4 91 71 16 52",
    "web_link": "https://www.instagram.com/explore/tags/yesmichelinguide/"
  },
  {
    "name": "La Cuisine d'Amélie",
    "street": "Route de Roquefraiche",
    "city": " Lauris",
    "postal_code": " 84360",
    "state": " FranceRoute de Roquefraiche",
    "experience": "Assez confortable. Nos établissements de charme.",
    "tel": "+33 4 13 98 00 00",
    "web_link": "http://www.domainedefontenille.com"
  },
  {
    "name": "Philip",
    "street": "chemin de la Fontaine",
    "city": " Fontaine-de-Vaucluse",
    "postal_code": " 84800",
    "state": " Francechemin de la Fontaine",
    "experience": "Assez confortable",
    "tel": "+33 4 90 20 31 81",
    "web_link": "https://www.instagram.com/explore/tags/yesmichelinguide/"
  },
  {
    "name": "Restaurant du Dauphin",
    "street": "3 rue d'Huisne",
    "city": " La Ferté-Bernard",
    "postal_code": " 72400",
    "state": " France3 rue d'Huisne",
    "experience": "Confortable",
    "tel": "+33 2 43 93 00 39",
    "web_link": "http://www.restaurant-du-dauphin.com"
  },
  {
    "name": "Auberge du Coq-en-Pâte",
    "street": "37 Grande-Rue",
    "city": " Argoules",
    "postal_code": " 80120",
    "state": " France37 Grande-Rue",
    "experience": "Assez confortable",
    "tel": "+33 3 22 29 92 09",
    "web_link": "https://www.instagram.com/explore/tags/yesmichelinguide/"
  },
  {
    "name": "Auberge La Baquère",
    "street": "Lieu-dit la Baquère",
    "city": " Préneron",
    "postal_code": " 32190",
    "state": " FranceLieu-dit la Baquère",
    "experience": "Assez confortable",
    "tel": "+33 5 62 06 42 75",
    "web_link": "http://www.aubergelabaquere.com"
  },
  {
    "name": "Chez Guy",
    "street": "3 place de la Mairie",
    "city": " Gevrey-Chambertin",
    "postal_code": " 21220",
    "state": " France3 place de la Mairie",
    "experience": "Confortable",
    "tel": "+33 3 80 58 51 51",
    "web_link": "tel:+33 3 80 58 51 51"
  },
  {
    "name": "20 Eiffel",
    "street": "20 rue de Monttessuy",
    "city": " Paris",
    "postal_code": " 75007",
    "state": " France20 rue de Monttessuy",
    "experience": "Assez confortable",
    "tel": "+33 1 47 05 14 20",
    "web_link": "tel:+33 1 47 05 14 20"
  },
  {
    "name": "La Clé des Champs",
    "street": "place des Frères-Caudron",
    "city": " Favières",
    "postal_code": " 80120",
    "state": " Franceplace des Frères-Caudron",
    "experience": "Confortable",
    "tel": "+33 3 22 27 88 00",
    "web_link": "http://www.restaurant-lacledeschamps.com"
  },
  {
    "name": "L'Envers du Décor",
    "street": "23  rue de la Bienfaisance",
    "city": " Les Herbiers",
    "postal_code": " 85500",
    "state": " France23  rue de la Bienfaisance",
    "experience": "Confortable",
    "tel": "+33 9 86 19 30 21",
    "web_link": "http://www.envers-du-decor.fr"
  },
  {
    "name": "La Table d'Angèle",
    "street": "30 Grande-Rue",
    "city": " La Bresse",
    "postal_code": " 88250",
    "state": " France30 Grande-Rue",
    "experience": "Assez confortable",
    "tel": "+33 3 29 25 41 97",
    "web_link": "http://www.la-table-dangele.com"
  },
  {
    "name": "Le Soubise",
    "street": "49 route de Bergues",
    "city": " Coudekerque-Branche",
    "postal_code": " 59210",
    "state": " France49 route de Bergues",
    "experience": "Très confortable. Nos établissements de charme.",
    "tel": "+33 3 28 64 66 00",
    "web_link": "http://www.restaurant-soubise.com"
  },
  {
    "name": "À la 12",
    "street": "6 place de la République",
    "city": " Delme",
    "postal_code": " 57590",
    "state": " France6 place de la République",
    "experience": "Confortable",
    "tel": "+33 3 87 01 30 18",
    "web_link": "http://www.ala12.fr"
  },
  {
    "name": "La Table de Pablo",
    "street": "Hameau Les Petits-Cléments",
    "city": " Villars",
    "postal_code": " 84400",
    "state": " FranceHameau Les Petits-Cléments",
    "experience": "Assez confortable",
    "tel": "+33 4 90 75 45 18",
    "web_link": "http://www.latabledepablo.com"
  },
  {
    "name": "Air Accueil",
    "street": "50 rue Nationale",
    "city": " Brebières",
    "postal_code": " 62117",
    "state": " France50 rue Nationale",
    "experience": "Très confortable",
    "tel": "+33 3 21 50 01 02",
    "web_link": "http://www.air-accueil-restaurant.com"
  },
  {
    "name": "Bistrot la Coulemelle",
    "street": "2 rue du Fanget",
    "city": " Saint-Bonnet-le-Froid",
    "postal_code": " 43290",
    "state": " France2 rue du Fanget",
    "experience": "Confortable",
    "tel": "+33 4 71 65 63 62",
    "web_link": "http://www.regismarcon.fr"
  },
  {
    "name": "Impérial Choisy",
    "street": "32 avenue de Choisy",
    "city": " Paris",
    "postal_code": " 75013",
    "state": " France32 avenue de Choisy",
    "experience": "Assez confortable",
    "tel": "+33 1 45 86 42 40",
    "web_link": "https://www.instagram.com/explore/tags/yesmichelinguide/"
  },
  {
    "name": "Atmosphère",
    "street": "123 place Balmat",
    "city": " Chamonix-Mont-Blanc",
    "postal_code": " 74400",
    "state": " France123 place Balmat",
    "experience": "Confortable",
    "tel": "+33 4 50 55 97 97",
    "web_link": "http://www.restaurant-atmosphere.com"
  },
  {
    "name": "Le Radis Beurre",
    "street": "51 boulevard Garibaldi",
    "city": " Paris",
    "postal_code": " 75015",
    "state": " France51 boulevard Garibaldi",
    "experience": "Assez confortable",
    "tel": "+33 1 40 33 99 26",
    "web_link": "http://www.restaurantleradisbeurre.com"
  },
  {
    "name": "La Griotte",
    "street": "3 rue des Cerisiers",
    "city": " Saules",
    "postal_code": " 25580",
    "state": " France3 rue des Cerisiers",
    "experience": "Assez confortable. Nos établissements de charme.",
    "tel": "+33 3 81 57 17 71",
    "web_link": "http://www.lagriotte.fr"
  },
  {
    "name": "Le Comptoir Breizh Café",
    "street": "6 rue de l'Orme",
    "city": " Saint-Malo",
    "postal_code": " 35400",
    "state": " France6 rue de l'Orme",
    "experience": "Assez confortable",
    "tel": "+33 2 99 56 96 08",
    "web_link": "http://www.breizhcafe.com"
  },
  {
    "name": "La Table de Marlène",
    "street": "Boulevard de Lattre-de-Tassigny",
    "city": " Vichy",
    "postal_code": " 03200",
    "state": " FranceBoulevard de Lattre-de-Tassigny",
    "experience": "Confortable",
    "tel": "+33 4 70 97 85 42",
    "web_link": "tel:+33 4 70 97 85 42"
  },
  {
    "name": "Insens",
    "street": "10 rue de Lodi",
    "city": " Saint-Étienne",
    "postal_code": " 42000",
    "state": " France10 rue de Lodi",
    "experience": "Assez confortable",
    "tel": "+33 4 77 32 34 34",
    "web_link": "http://www.insens-restaurant.fr"
  },
  {
    "name": "Colbert",
    "street": "127 route de Mittelhausbergen",
    "city": " Strasbourg",
    "postal_code": " 67200",
    "state": " France127 route de Mittelhausbergen",
    "experience": "Confortable",
    "tel": "+33 3 88 22 52 16",
    "web_link": "http://www.restaurant-colbert.com"
  },
  {
    "name": "La Maison",
    "street": "1 rue du 14-Juillet",
    "city": " Cognac",
    "postal_code": " 16100",
    "state": " France1 rue du 14-Juillet",
    "experience": "Confortable",
    "tel": "+33 5 45 35 21 77",
    "web_link": "http://www.restaurant-lamaison-cognac.fr"
  },
  {
    "name": "Lou Esberit",
    "street": "8 rue Adoue",
    "city": " Pau",
    "postal_code": " 64000",
    "state": " France8 rue Adoue",
    "experience": "Assez confortable",
    "tel": "+33 9 83 97 58 58",
    "web_link": "http://www.restaurant-louesberit.com"
  },
  {
    "name": "Pomze",
    "street": "109 boulevard Haussmann",
    "city": " Paris",
    "postal_code": " 75008",
    "state": " France109 boulevard Haussmann",
    "experience": "Confortable",
    "tel": "+33 1 42 65 65 83",
    "web_link": "http://www.pomze.com"
  },
  {
    "name": "Le Florida",
    "street": "2 rue du Lac",
    "city": " Castéra-Verduzan",
    "postal_code": " 32410",
    "state": " France2 rue du Lac",
    "experience": "Confortable",
    "tel": "+33 5 62 68 13 22",
    "web_link": "http://www.lefloridagascony.fr"
  },
  {
    "name": "Zorn - La Petite Auberge",
    "street": "45 boulevard Pierre-Brossolette",
    "city": " Laon",
    "postal_code": " 02000",
    "state": " France45 boulevard Pierre-Brossolette",
    "experience": "Confortable",
    "tel": "+33 3 23 23 02 38",
    "web_link": "http://www.zorn-lapetiteauberge.com"
  },
  {
    "name": "La Cantinetta",
    "street": "24 cours Julien",
    "city": " Marseille",
    "postal_code": " 13006",
    "state": " France24 cours Julien",
    "experience": "Assez confortable",
    "tel": "+33 4 91 48 10 48",
    "web_link": "http://www.restaurantlacantinetta.fr"
  },
  {
    "name": "Café de la Fontaine",
    "street": "4 avenue du Général-de-Gaulle",
    "city": " La Turbie",
    "postal_code": " 06320",
    "state": " France4 avenue du Général-de-Gaulle",
    "experience": "Assez confortable",
    "tel": "+33 4 93 28 52 79",
    "web_link": "http://www.hostellerie-jerome.com"
  },
  {
    "name": "La Tête au Loup",
    "street": "Le Pin-au-Haras",
    "city": " 61310",
    "postal_code": " FranceLe Pin-au-Haras",
    "state": " 61310",
    "experience": "Confortable",
    "tel": "+33 2 33 35 57 69",
    "web_link": "http://www.lateteauloup.fr"
  },
  {
    "name": "L'Éden",
    "street": "7 rue Henri-Fouchard",
    "city": " Houlgate",
    "postal_code": " 14510",
    "state": " France7 rue Henri-Fouchard",
    "experience": "Confortable",
    "tel": "+33 2 31 24 84 37",
    "web_link": "http://www.eden-houlgate.com"
  },
  {
    "name": "La Chaumine",
    "street": "79 rue de Port-Haliguen",
    "city": " Quiberon",
    "postal_code": " 56170",
    "state": " France79 rue de Port-Haliguen",
    "experience": "Confortable",
    "tel": "+33 2 97 50 17 67",
    "web_link": "http://www.restaurant-lachaumine.com"
  },
  {
    "name": "La Part des Anges",
    "street": "7 rue d'Empare",
    "city": " Castres",
    "postal_code": " 81100",
    "state": " France7 rue d'Empare",
    "experience": "Assez confortable",
    "tel": "+33 5 63 51 65 25",
    "web_link": "https://www.instagram.com/explore/tags/yesmichelinguide/"
  },
  {
    "name": "Les Résistants",
    "street": "16 rue du Château-d'Eau",
    "city": " Paris",
    "postal_code": " 75010",
    "state": " France16 rue du Château-d'Eau",
    "experience": "Assez confortable",
    "tel": "+33 1 77 32 77 61",
    "web_link": "http://www.lesresistants.fr"
  },
  {
    "name": "Le Canut et les Gones",
    "street": "29 rue Belfort",
    "city": " Lyon",
    "postal_code": " 69004",
    "state": " France29 rue Belfort",
    "experience": "Assez confortable",
    "tel": "+33 4 78 29 17 23",
    "web_link": "http://www.lecanutetlesgones.com"
  },
  {
    "name": "Lou Pinatou",
    "street": "Le Bourg",
    "city": " Solignac-sous-Roche",
    "postal_code": " 43130",
    "state": " FranceLe Bourg",
    "experience": "Assez confortable",
    "tel": "+33 4 71 65 21 54",
    "web_link": "http://www.auberge-loupinatou.fr"
  },
  {
    "name": "Le Bouche à Oreille",
    "street": "19 rue Paul-Doumer",
    "city": " Le Havre",
    "postal_code": " 76600",
    "state": " France19 rue Paul-Doumer",
    "experience": "Assez confortable",
    "tel": "+33 2 35 45 44 60",
    "web_link": "https://www.instagram.com/explore/tags/yesmichelinguide/"
  },
  {
    "name": "Le Puits des Saveurs",
    "street": "Route de Nantes",
    "city": " Le Poulfanc",
    "postal_code": " Séné",
    "state": " 56860",
    "experience": "Assez confortable",
    "tel": "+33 2 97 42 60 69",
    "web_link": "https://www.instagram.com/explore/tags/yesmichelinguide/"
  },
  {
    "name": "Le Sabayon",
    "street": "26 rue Auguste-Blanqui",
    "city": " Lorient",
    "postal_code": " 56100",
    "state": " France26 rue Auguste-Blanqui",
    "experience": "Confortable",
    "tel": "+33 2 97 21 19 79",
    "web_link": "http://www.lesabayon.fr"
  },
  {
    "name": "Les Cocottes - Tour Eiffel",
    "street": "\n                                \n                                    \n                                        1 Offre\n                                    \n                                \n                            \n                                    \n                                        \n                                            1 Offre\n                                        \n                                    \n                                ",
    "experience": "Assez confortable",
    "tel": "+33 1 45 50 10 28",
    "web_link": "javascript:void(0)"
  },
  {
    "name": "Au Plaisir Ambré",
    "street": "26 Grande-Rue",
    "city": " Briançon",
    "postal_code": " 05100",
    "state": " France26 Grande-Rue",
    "experience": "Confortable",
    "tel": "+33 4 92 52 63 46",
    "web_link": "http://www.auplaisirambre.com"
  },
  {
    "name": "Le Central",
    "street": "20 cours de la République",
    "city": " Roanne",
    "postal_code": " 42300",
    "state": " France20 cours de la République",
    "experience": "Assez confortable. Nos établissements de charme.",
    "tel": "+33 4 77 67 72 72",
    "web_link": "http://www.troisgros.com"
  },
  {
    "name": "Les Petits Princes",
    "street": "26 rue du Val-d'Or",
    "city": " Suresnes",
    "postal_code": " 92150",
    "state": " France26 rue du Val-d'Or",
    "experience": "Assez confortable",
    "tel": "+33 1 41 47 87 61",
    "web_link": "http://www.restaurantlespetitsprinces.fr"
  },
  {
    "name": "Le Pantruche",
    "street": "3 rue Victor-Massé",
    "city": " Paris",
    "postal_code": " 75009",
    "state": " France3 rue Victor-Massé",
    "experience": "Assez confortable",
    "tel": "+33 1 48 78 55 60",
    "web_link": "https://www.instagram.com/explore/tags/yesmichelinguide/"
  },
  {
    "name": "Le Kitchen Café",
    "street": "34 rue Chevreul",
    "city": " Lyon",
    "postal_code": " 69007",
    "state": " France34 rue Chevreul",
    "experience": "Assez confortable",
    "tel": "+33 6 03 36 42 75",
    "web_link": "http://www.lekitchencafe.com"
  },
  {
    "name": "La Chaumière",
    "street": "96 avenue Emmanuel-Brousse",
    "city": " Font-Romeu",
    "postal_code": " 66120",
    "state": " France96 avenue Emmanuel-Brousse",
    "experience": "Confortable",
    "tel": "+33 4 68 30 04 40",
    "web_link": "http://www.restaurantlachaumiere.fr"
  },
  {
    "name": "Le Muratore",
    "street": "8 place du Docteur-Jean-Bernex",
    "city": " Évian-les-Bains",
    "postal_code": " 74500",
    "state": " France8 place du Docteur-Jean-Bernex",
    "experience": "Assez confortable",
    "tel": "+33 4 50 92 82 49",
    "web_link": "http://www.muratore-restaurant-evian.com"
  },
  {
    "name": "Le Comptoir de La Butte",
    "street": "12 rue de la Mer",
    "city": " Plouider",
    "postal_code": " 29260",
    "state": " France12 rue de la Mer",
    "experience": "Assez confortable",
    "tel": "+33 2 98 25 40 54",
    "web_link": "http://lecomptoir.labutte.fr"
  },
  {
    "name": "Le Saint-Honoré",
    "street": "7 place des Petites-Boucheries",
    "city": " Tours",
    "postal_code": " 37000",
    "state": " France7 place des Petites-Boucheries",
    "experience": "Assez confortable. Nos établissements de charme.",
    "tel": "+33 2 47 61 93 82",
    "web_link": "https://www.instagram.com/explore/tags/yesmichelinguide/"
  },
  {
    "name": "L'Amandier",
    "street": "19 rue Marc-Antoine-Désaugiers",
    "city": " Fréjus",
    "postal_code": " 83600",
    "state": " France19 rue Marc-Antoine-Désaugiers",
    "experience": "Confortable",
    "tel": "+33 4 94 53 48 77",
    "web_link": "http://www.restaurant-lamandier-frejus.com"
  },
  {
    "name": "Les Arômes",
    "street": "230 avenue du 2ème-Cuirassier",
    "city": " Gémenos",
    "postal_code": " 13420",
    "state": " France230 avenue du 2ème-Cuirassier",
    "experience": "Confortable",
    "tel": "+33 9 80 73 06 60",
    "web_link": "http://www.lesaromesgemenos.fr"
  },
  {
    "name": "Bistrot des Hauts de Loire",
    "street": "\n                                \n                                    \n                                        1 Offre\n                                    \n                                \n                            \n                                    \n                                        \n                                            1 Offre\n                                        \n                                    \n                                ",
    "experience": "Assez confortable. Nos établissements de charme.",
    "tel": "+33 2 54 20 72 57",
    "web_link": "javascript:void(0)"
  },
  {
    "name": "Le P'tit Goustan",
    "street": "9 place Saint-Sauveur",
    "city": " Auray",
    "postal_code": " 56400",
    "state": " France9 place Saint-Sauveur",
    "experience": "Assez confortable",
    "tel": "+33 2 97 56 37 30",
    "web_link": "http://www.restaurantleptitgo.wixsite.com/leptitgoustan"
  },
  {
    "name": "La Table d'Hôtes",
    "street": "10 avenue du Général-Leclerc",
    "city": " Ouistreham",
    "postal_code": " 14150",
    "state": " France10 avenue du Général-Leclerc",
    "experience": "Confortable",
    "tel": "+33 2 31 97 18 44",
    "web_link": "http://www.latabledhotes-caen.com"
  },
  {
    "name": "Chez les Anges",
    "street": "54 boulevard de la Tour-Maubourg",
    "city": " Paris",
    "postal_code": " 75007",
    "state": " France54 boulevard de la Tour-Maubourg",
    "experience": "Confortable",
    "tel": "+33 1 47 05 89 86",
    "web_link": "http://www.chezlesanges.com"
  },
  {
    "name": "La Dariole",
    "street": "25 rue Étienne-Dolet",
    "city": " Orléans",
    "postal_code": " 45000",
    "state": " France25 rue Étienne-Dolet",
    "experience": "Assez confortable",
    "tel": "+33 2 38 77 26 67",
    "web_link": "https://www.instagram.com/explore/tags/yesmichelinguide/"
  },
  {
    "name": "Histoire Ancienne",
    "street": "20 rue Royale",
    "city": " Calais",
    "postal_code": " 62100",
    "state": " France20 rue Royale",
    "experience": "Assez confortable",
    "tel": "+33 3 21 34 11 20",
    "web_link": "http://www.histoire-ancienne.com"
  },
  {
    "name": "Le Mail",
    "street": "16 allée du Mail",
    "city": " La Rochelle",
    "postal_code": " 17000",
    "state": " France16 allée du Mail",
    "experience": "Assez confortable",
    "tel": "+33 5 46 34 12 52",
    "web_link": "http://www.restaurant-le-mail.com"
  },
  {
    "name": "Auberge des Granges",
    "street": "Au village",
    "city": " Bessas",
    "postal_code": " 07150",
    "state": " FranceAu village",
    "experience": "Assez confortable",
    "tel": "+33 4 75 38 02 01",
    "web_link": "http://www.aubergedesgranges.com"
  },
  {
    "name": "Au Colombier",
    "street": "126 allée Colombier",
    "city": " Anse",
    "postal_code": " 69480",
    "state": " France126 allée Colombier",
    "experience": "Assez confortable",
    "tel": "+33 4 74 67 04 68",
    "web_link": "http://www.aucolombier.com"
  },
  {
    "name": "Bird",
    "street": "38 rue Charles-de-Gaulle",
    "city": " Yerres",
    "postal_code": " 91330",
    "state": " France38 rue Charles-de-Gaulle",
    "experience": "Assez confortable",
    "tel": "+33 1 79 93 28 81",
    "web_link": "http://www.bird-restaurant.com"
  },
  {
    "name": "L'Arum",
    "street": "21 avenue Joseph-Clotis",
    "city": " Hyères",
    "postal_code": " 83400",
    "state": " France21 avenue Joseph-Clotis",
    "experience": "Assez confortable",
    "tel": "+33 4 83 99 42 04",
    "web_link": "https://www.instagram.com/explore/tags/yesmichelinguide/"
  },
  {
    "name": "Manoir de la Pommeraie",
    "street": "L'Auvère",
    "city": " Vire",
    "postal_code": " 14500",
    "state": " FranceL'Auvère",
    "experience": "Confortable",
    "tel": "+33 2 31 68 07 71",
    "web_link": "http://www.manoirdelapommeraie.com"
  },
  {
    "name": "Auberge Metzger",
    "street": "55 rue Principale",
    "city": " Natzwiller",
    "postal_code": " 67130",
    "state": " France55 rue Principale",
    "experience": "Confortable",
    "tel": "+33 3 88 97 02 42",
    "web_link": "http://www.hotel-aubergemetzger.com"
  },
  {
    "name": "Au Ptit Bistrot",
    "street": "31 rue Larcher",
    "city": " Bayeux",
    "postal_code": " 14400",
    "state": " France31 rue Larcher",
    "experience": "Assez confortable",
    "tel": "+33 2 31 92 30 08",
    "web_link": "https://www.instagram.com/explore/tags/yesmichelinguide/"
  },
  {
    "name": "La Méditerranée",
    "street": "\n                                \n                                    \n                                        1 Offre\n                                    \n                                \n                            \n                                    \n                                        \n                                            1 Offre\n                                        \n                                    \n                                ",
    "experience": "Confortable",
    "tel": "+33 1 43 26 02 30",
    "web_link": "javascript:void(0)"
  },
  {
    "name": "L'Instinct Gourmand",
    "street": "14 rue St-Léonard",
    "city": " Nantes",
    "postal_code": " 44000",
    "state": " France14 rue St-Léonard",
    "experience": "Assez confortable",
    "tel": "+33 2 40 47 41 64",
    "web_link": "tel:+33 2 40 47 41 64"
  },
  {
    "name": "Les Épices Curiens",
    "street": "3b place de la Gare",
    "city": " Écouviez",
    "postal_code": " 55600",
    "state": " France3b place de la Gare",
    "experience": "Assez confortable",
    "tel": "+33 3 29 86 84 58",
    "web_link": "http://www.lesepicescuriens.com"
  },
  {
    "name": "Le Margote",
    "street": "50 quai Michel-Féré",
    "city": " Le Havre",
    "postal_code": " 76600",
    "state": " France50 quai Michel-Féré",
    "experience": "Confortable",
    "tel": "+33 2 35 43 68 10",
    "web_link": "http://www.lemargote.fr"
  },
  {
    "name": "Bistrot Lucien",
    "street": "6 rue du Chambertin",
    "city": " Gevrey-Chambertin",
    "postal_code": " 21220",
    "state": " France6 rue du Chambertin",
    "experience": "Assez confortable",
    "tel": "+33 3 80 34 33 20",
    "web_link": "http://www.thomascollomb.fr"
  },
  {
    "name": "Les Templiers",
    "street": "3 place des Martyrs",
    "city": " Dunes",
    "postal_code": " 82340",
    "state": " France3 place des Martyrs",
    "experience": "Confortable",
    "tel": "+33 5 63 39 86 21",
    "web_link": "https://www.instagram.com/explore/tags/yesmichelinguide/"
  },
  {
    "name": "En Cuisine",
    "street": "39 avenue Edouard-Herriot",
    "city": " Brive-la-Gaillarde",
    "postal_code": " 19100",
    "state": " France39 avenue Edouard-Herriot",
    "experience": "Confortable",
    "tel": "+33 5 55 74 97 53",
    "web_link": "http://www.encuisine.net"
  },
  {
    "name": "M Restaurant",
    "street": "47 avenue Foch",
    "city": " Lyon",
    "postal_code": " 69006",
    "state": " France47 avenue Foch",
    "experience": "Assez confortable",
    "tel": "+33 4 78 89 55 19",
    "web_link": "tel:+33 4 78 89 55 19"
  },
  {
    "name": "L'Amphitryon",
    "street": "56 cours du Maréchal Joffre",
    "city": " Dax",
    "postal_code": " 40100",
    "state": " France56 cours du Maréchal Joffre",
    "experience": "Confortable",
    "tel": "+33 5 58 74 58 05",
    "web_link": "https://www.instagram.com/explore/tags/yesmichelinguide/"
  },
  {
    "name": "Relais Ste-Anne",
    "street": "rue du Pourtanel",
    "city": " Martel",
    "postal_code": " 46600",
    "state": " Francerue du Pourtanel",
    "experience": "Confortable",
    "tel": "+33 5 65 37 40 56",
    "web_link": "http://www.relais-sainte-anne.com"
  },
  {
    "name": "Mee",
    "street": "5 rue d'Argenteuil",
    "city": " Paris",
    "postal_code": " 75001",
    "state": " France5 rue d'Argenteuil",
    "experience": "Assez confortable",
    "tel": "+33 1 42 86 11 85",
    "web_link": "https://www.instagram.com/explore/tags/yesmichelinguide/"
  },
  {
    "name": "L'Araignée Gourmande",
    "street": "8 rue de la Paix",
    "city": " Laragne-Montéglin",
    "postal_code": " 05300",
    "state": " France8 rue de la Paix",
    "experience": "Confortable",
    "tel": "+33 4 92 65 13 39",
    "web_link": "http://www.laraignee-gourmande.fr"
  },
  {
    "name": "Le Grand Bain",
    "street": "14 rue Dénoyez",
    "city": " Paris",
    "postal_code": " 75020",
    "state": " France14 rue Dénoyez",
    "experience": "Assez confortable",
    "tel": "+33 9 83 02 72 02",
    "web_link": "http://www.legrandbainparis.com"
  },
  {
    "name": "Italie là-bas",
    "street": "23 rue de la Bancasse",
    "city": " Avignon",
    "postal_code": " 84000",
    "state": " France23 rue de la Bancasse",
    "experience": "Assez confortable",
    "tel": "+33 4 86 81 62 27",
    "web_link": "tel:+33 4 86 81 62 27"
  },
  {
    "name": "Le Pré St-Jean",
    "street": "18 avenue Maréchal-Leclerc",
    "city": " Pézenas",
    "postal_code": " 34120",
    "state": " France18 avenue Maréchal-Leclerc",
    "experience": "Confortable",
    "tel": "+33 4 67 98 15 31",
    "web_link": "http://www.restaurant-leprestjean.fr"
  },
  {
    "name": "Cook'in",
    "street": "18 rue Porte-Lucas",
    "city": " Épernay",
    "postal_code": " 51200",
    "state": " France18 rue Porte-Lucas",
    "experience": "Assez confortable",
    "tel": "+33 3 26 54 89 80",
    "web_link": "https://www.instagram.com/explore/tags/yesmichelinguide/"
  },
  {
    "name": "La Ferme du Poulet",
    "street": "180 rue Georges Mangin",
    "city": " Villefranche-sur-Saône",
    "postal_code": " 69400",
    "state": " France180 rue Georges Mangin",
    "experience": "Confortable",
    "tel": "+33 4 74 62 19 07",
    "web_link": "http://www.lafermedupoulet.com"
  },
  {
    "name": "L'Auberge des Montagnes",
    "street": "Le Bourg",
    "city": " Pailherols",
    "postal_code": " 15800",
    "state": " FranceLe Bourg",
    "experience": "Confortable",
    "tel": "+33 4 71 47 57 01",
    "web_link": "http://www.auberge-des-montagnes.com"
  },
  {
    "name": "Mamagoto",
    "street": "5 rue des Petits-Hotels",
    "city": " Paris",
    "postal_code": " 75010",
    "state": " France5 rue des Petits-Hotels",
    "experience": "Assez confortable",
    "tel": "+33 1 44 79 03 98",
    "web_link": "http://www.mamagoto.fr"
  },
  {
    "name": "Le Montcenis",
    "street": "place du Champ-de-Foire",
    "city": " Montcenis",
    "postal_code": " 71710",
    "state": " Franceplace du Champ-de-Foire",
    "experience": "Confortable",
    "tel": "+33 3 85 55 44 36",
    "web_link": "https://www.instagram.com/explore/tags/yesmichelinguide/"
  },
  {
    "name": "L'Instant du Sud",
    "street": "39 Grand-Rue",
    "city": " Générac",
    "postal_code": " 30510",
    "state": " France39 Grand-Rue",
    "experience": "Assez confortable",
    "tel": "+33 4 66 02 03 93",
    "web_link": "http://www.instantdusud.fr"
  },
  {
    "name": "Le Rochetoirin",
    "street": "Route du Village",
    "city": " Rochetoirin",
    "postal_code": " 38110",
    "state": " FranceRoute du Village",
    "experience": "Confortable",
    "tel": "+33 4 74 97 60 38",
    "web_link": "http://www.lerochetoirin.fr"
  },
  {
    "name": "Le Dauphin",
    "street": "29 rue Gemare",
    "city": " Caen",
    "postal_code": " 14000",
    "state": " France29 rue Gemare",
    "experience": "Très confortable",
    "tel": "+33 2 31 86 22 26",
    "web_link": "tel:+33 2 31 86 22 26"
  },
  {
    "name": "Hostellerie du Prieuré",
    "street": "163 rue du Général-de-Gaulle",
    "city": " Saint-Quirin",
    "postal_code": " 57560",
    "state": " France163 rue du Général-de-Gaulle",
    "experience": "Confortable",
    "tel": "+33 3 87 08 66 52",
    "web_link": "tel:+33 3 87 08 66 52"
  },
  {
    "name": "Le Clos Pierrepont",
    "street": "56 route de Draguignan",
    "city": " Montferrat",
    "postal_code": " 83131",
    "state": " France56 route de Draguignan",
    "experience": "Confortable",
    "tel": "+33 4 94 50 21 30",
    "web_link": "http://www.clospierrepont.com"
  },
  {
    "name": "Le Casse Noix",
    "street": "56 rue de la Fédération",
    "city": " Paris",
    "postal_code": " 75015",
    "state": " France56 rue de la Fédération",
    "experience": "Assez confortable",
    "tel": "+33 1 45 66 09 01",
    "web_link": "http://www.le-cassenoix.fr"
  },
  {
    "name": "La Maison Carrier",
    "street": "44 route du Bouchet",
    "city": " Chamonix-Mont-Blanc",
    "postal_code": " 74400",
    "state": " France44 route du Bouchet",
    "experience": "Confortable. Nos établissements de charme.",
    "tel": "+33 4 50 53 00 03",
    "web_link": "http://www.hameaualbert.fr"
  },
  {
    "name": "Le P'tit Rouquin",
    "street": "92 rue de la Gare",
    "city": " Niort",
    "postal_code": " 79000",
    "state": " France92 rue de la Gare",
    "experience": "Assez confortable",
    "tel": "+33 5 49 24 05 34",
    "web_link": "http://www.leptitrouquin.com"
  },
  {
    "name": "Le Pressoir de Bacchus",
    "street": "50 route des Vins",
    "city": " Blienschwiller",
    "postal_code": " 67650",
    "state": " France50 route des Vins",
    "experience": "Confortable",
    "tel": "+33 3 88 92 43 01",
    "web_link": "https://www.instagram.com/explore/tags/yesmichelinguide/"
  },
  {
    "name": "L'Eau d'Oust",
    "street": "6 rue du Lac",
    "city": " Rohan",
    "postal_code": " 56580",
    "state": " France6 rue du Lac",
    "experience": "Confortable",
    "tel": "+33 2 97 38 91 86",
    "web_link": "http://www.leaudoust.fr"
  },
  {
    "name": "Le Clos Heurtebise",
    "street": "13 chemin des Capucins",
    "city": " Remiremont",
    "postal_code": " 88200",
    "state": " France13 chemin des Capucins",
    "experience": "Confortable",
    "tel": "+33 3 29 62 08 04",
    "web_link": "http://www.leclosheurtebise.com"
  },
  {
    "name": "Les Capucins",
    "street": "20 faubourg de Montbéliard",
    "city": " Belfort",
    "postal_code": " 90000",
    "state": " France20 faubourg de Montbéliard",
    "experience": "Confortable",
    "tel": "+33 3 84 28 04 60",
    "web_link": "tel:+33 3 84 28 04 60"
  },
  {
    "name": "Le Bois des Mûres",
    "street": "815 avenue Léopold-Fabre",
    "city": " Lans-en-Vercors",
    "postal_code": " 38250",
    "state": " France815 avenue Léopold-Fabre",
    "experience": "Assez confortable",
    "tel": "+33 4 76 95 48 99",
    "web_link": "https://www.instagram.com/explore/tags/yesmichelinguide/"
  },
  {
    "name": "Perle des Vosges",
    "street": "22 route Gaschney",
    "city": " Muhlbach-sur-Munster",
    "postal_code": " 68380",
    "state": " France22 route Gaschney",
    "experience": "Confortable",
    "tel": "+33 3 89 77 61 34",
    "web_link": "tel:+33 3 89 77 61 34"
  },
  {
    "name": "Le Cygne",
    "street": "35 Grande-Rue",
    "city": " Gundershoffen",
    "postal_code": " 67110",
    "state": " France35 Grande-Rue",
    "experience": "Confortable",
    "tel": "+33 3 88 72 96 43",
    "web_link": "tel:+33 3 88 72 96 43"
  },
  {
    "name": "La Gazette",
    "street": "\n                                \n                                    \n                                        2 Offres\n                                    \n                                \n                            \n                                    \n                                        \n                                            2 Offres\n                                        \n                                    \n                                ",
    "experience": "Confortable",
    "tel": "+33 2 32 33 43 40",
    "web_link": "https://content.static-bookatable.com/ServePromotionAttachment.aspx?id=119019"
  },
  {
    "name": "Ani",
    "street": "199 rue de Créqui",
    "city": " Lyon",
    "postal_code": " 69003",
    "state": " France199 rue de Créqui",
    "experience": "Assez confortable. Nos établissements de charme.",
    "tel": "+33 9 67 23 51 33",
    "web_link": "tel:+33 9 67 23 51 33"
  },
  {
    "name": "Mokko",
    "street": "3 rue Francoeur",
    "city": " Paris",
    "postal_code": " 75018",
    "state": " France3 rue Francoeur",
    "experience": "Assez confortable",
    "tel": "+33 9 80 96 93 60",
    "web_link": "https://www.instagram.com/explore/tags/yesmichelinguide/"
  },
  {
    "name": "Le Castet",
    "street": "44 Avenue de la Gare",
    "city": " Martres-Tolosane",
    "postal_code": " 31220",
    "state": " France44 Avenue de la Gare",
    "experience": "Confortable",
    "tel": "+33 5 61 98 80 20",
    "web_link": "tel:+33 5 61 98 80 20"
  },
  {
    "name": "La Table d'Aimé",
    "street": "4 Rue Francisco Ferrer",
    "city": " Rivesaltes",
    "postal_code": " 66600",
    "state": " France4 Rue Francisco Ferrer",
    "experience": "Assez confortable. Nos établissements de charme.",
    "tel": "+33 4 68 34 35 77",
    "web_link": "http://www.latabledaime.com"
  },
  {
    "name": "L'Ô à la Bouche",
    "street": "56 Allées Fénelon",
    "city": " Cahors",
    "postal_code": " 46000",
    "state": " France56 Allées Fénelon",
    "experience": "Confortable",
    "tel": "+33 5 65 35 65 69",
    "web_link": "http://www.loalabouche-restaurant.com"
  },
  {
    "name": "Le Clos Perché",
    "street": "Le bourg",
    "city": " Montarcher",
    "postal_code": " 42380",
    "state": " FranceLe bourg",
    "experience": "Confortable",
    "tel": "+33 4 77 50 00 08",
    "web_link": "http://www.leclosperche.fr"
  },
  {
    "name": "La Table de Catusseau",
    "street": "86 rue de Catusseau",
    "city": " Pomerol",
    "postal_code": " 33500",
    "state": " France86 rue de Catusseau",
    "experience": "Assez confortable",
    "tel": "+33 5 57 84 40 40",
    "web_link": "https://www.instagram.com/explore/tags/yesmichelinguide/"
  },
  {
    "name": "L'Arche de Meslay",
    "street": "14 rue des Ailes",
    "city": " Parçay-Meslay",
    "postal_code": " 37210",
    "state": " France14 rue des Ailes",
    "experience": "Confortable",
    "tel": "+33 2 47 29 00 07",
    "web_link": "http://www.larchedemeslay.fr"
  },
  {
    "name": "Le Cottage",
    "street": "616 chemin du Marais",
    "city": " Chonas-l'Amballan",
    "postal_code": " 38121",
    "state": " France616 chemin du Marais",
    "experience": "Assez confortable",
    "tel": "+33 4 74 58 83 28",
    "web_link": "tel:+33 4 74 58 83 28"
  },
  {
    "name": "Vidal",
    "street": "Place du Marché",
    "city": " Saint-Julien-Chapteuil",
    "postal_code": " 43260",
    "state": " FrancePlace du Marché",
    "experience": "Très confortable",
    "tel": "+33 4 71 08 70 50",
    "web_link": "http://www.restaurant-vidal.com"
  },
  {
    "name": "La Maison de Celou",
    "street": "impasse de l'Alouette - Portail du Thor",
    "city": " Châteauneuf-de-Gadagne",
    "postal_code": " 84470",
    "state": " Franceimpasse de l'Alouette - Portail du Thor",
    "experience": "Assez confortable. Nos établissements de charme.",
    "tel": "+33 4 90 16 08 61",
    "web_link": "http://www.lamaisondecelou84.com"
  },
  {
    "name": "Simple et Meilleur",
    "street": "Place Notre-Dame",
    "city": " quartier de Caseblanche",
    "postal_code": " Saint-Martin-de-Belleville",
    "state": " 73440",
    "experience": "Assez confortable",
    "tel": "+33 4 86 80 02 91",
    "web_link": "http://www.simple-meilleur.com"
  },
  {
    "name": "La Balade des Saveurs",
    "street": "3 quai Jean-Jaurès",
    "city": " L'Isle-sur-la-Sorgue",
    "postal_code": " 84800",
    "state": " France3 quai Jean-Jaurès",
    "experience": "Confortable",
    "tel": "+33 4 90 95 27 85",
    "web_link": "http://www.balade-des-saveurs.com"
  },
  {
    "name": "Tempero",
    "street": "5 rue Clisson",
    "city": " Paris",
    "postal_code": " 75013",
    "state": " France5 rue Clisson",
    "experience": "Assez confortable",
    "tel": "+33 9 54 17 48 88",
    "web_link": "http://www.tempero.fr"
  },
  {
    "name": "Le Chaudron d'Anna",
    "street": "4-5 place Cazeaux-Cazalet",
    "city": " Rions",
    "postal_code": " 33410",
    "state": " France4-5 place Cazeaux-Cazalet",
    "experience": "Assez confortable",
    "tel": "+33 5 56 27 43 31",
    "web_link": "http://www.lechaudrondanna.com"
  },
  {
    "name": "Ar Maen Hir",
    "street": "15 bis rue du Prieuré",
    "city": " Locronan",
    "postal_code": " 29180",
    "state": " France15 bis rue du Prieuré",
    "experience": "Assez confortable",
    "tel": "+33 2 56 10 18 37",
    "web_link": "https://www.instagram.com/explore/tags/yesmichelinguide/"
  },
  {
    "name": "Le St-Vincent",
    "street": "76 rue Laubaner",
    "city": " Roquefort",
    "postal_code": " 40120",
    "state": " France76 rue Laubaner",
    "experience": "Confortable",
    "tel": "+33 5 58 45 75 36",
    "web_link": "http://www.lestvincent.com"
  },
  {
    "name": "Carré 2 Vigne",
    "street": "14 rue de Pomet",
    "city": " Toulon",
    "postal_code": " 83000",
    "state": " France14 rue de Pomet",
    "experience": "Assez confortable",
    "tel": "+33 4 94 92 98 21",
    "web_link": "http://www.carre2vigne.com"
  },
  {
    "name": "Disini",
    "street": "1 rue des Carrières",
    "city": " Castries",
    "postal_code": " 34160",
    "state": " France1 rue des Carrières",
    "experience": "Confortable. Nos établissements de charme.",
    "tel": "+33 4 67 41 97 86",
    "web_link": "http://www.disini-hotel.com"
  },
  {
    "name": "Le Jardin d'Alice",
    "street": "1098 route de Lillers",
    "city": " Busnes",
    "postal_code": " 62350",
    "state": " France1098 route de Lillers",
    "experience": "Confortable. Nos établissements de charme.",
    "tel": "+33 3 21 68 88 88",
    "web_link": "tel:+33 3 21 68 88 88"
  },
  {
    "name": "Restaurant des Voisins",
    "street": "12 rue des Voisins",
    "city": " Salies-de-Béarn",
    "postal_code": " 64270",
    "state": " France12 rue des Voisins",
    "experience": "Confortable",
    "tel": "+33 5 59 38 01 79",
    "web_link": "tel:+33 5 59 38 01 79"
  },
  {
    "name": "La Ferme de la Haute Crémonville",
    "street": "Route de Crémonville",
    "city": " Saint-Étienne-du-Vauvray",
    "postal_code": " 27430",
    "state": " FranceRoute de Crémonville",
    "experience": "Assez confortable",
    "tel": "+33 2 32 59 14 22",
    "web_link": "http://www.restaurant-ferme-haute-cremonville.com"
  },
  {
    "name": "Hôtellerie St-Jean",
    "street": "25 route de Parthenay",
    "city": " Saint-Jean-de-Thouars",
    "postal_code": " 79100",
    "state": " France25 route de Parthenay",
    "experience": "Confortable",
    "tel": "+33 5 49 96 12 60",
    "web_link": "tel:+33 5 49 96 12 60"
  },
  {
    "name": "Schilling",
    "street": "\n                                \n                                    \n                                        1 Offre\n                                    \n                                \n                            \n                                    \n                                        \n                                            1 Offre\n                                        \n                                    \n                                ",
    "experience": "Assez confortable",
    "tel": "+33 4 91 01 81 39",
    "web_link": "javascript:void(0)"
  },
  {
    "name": "La Côte Rôtie",
    "street": "2 boulevard Maréchal-Lyautey",
    "city": " La Rochelle",
    "postal_code": " 17000",
    "state": " France2 boulevard Maréchal-Lyautey",
    "experience": "Assez confortable",
    "tel": "+33 5 46 44 04 19",
    "web_link": "https://www.instagram.com/explore/tags/yesmichelinguide/"
  },
  {
    "name": "L'Essentiel",
    "street": "12 rue Audra",
    "city": " Dijon",
    "postal_code": " 21000",
    "state": " France12 rue Audra",
    "experience": "Assez confortable",
    "tel": "+33 3 80 30 14 52",
    "web_link": "http://www.lessentiel-dijon.com"
  },
  {
    "name": "La Jument Verte",
    "street": "43 route de Roissy",
    "city": " Tremblay-en-France",
    "postal_code": " 93290",
    "state": " France43 route de Roissy",
    "experience": "Assez confortable",
    "tel": "+33 1 48 60 69 90",
    "web_link": "http://www.aubergelajumentverte.fr"
  },
  {
    "name": "Le Boudes La Vigne",
    "street": "place de la Mairie",
    "city": " Boudes",
    "postal_code": " 63340",
    "state": " Franceplace de la Mairie",
    "experience": "Confortable",
    "tel": "+33 4 73 96 55 66",
    "web_link": "http://www.leboudeslavigne.franceserv.com"
  },
  {
    "name": "La Table de Haute-Serre",
    "street": "Château de Haute-Serre",
    "city": " Cieurac",
    "postal_code": " 46230",
    "state": " FranceChâteau de Haute-Serre",
    "experience": "Assez confortable. Nos établissements de charme.",
    "tel": "+33 5 65 20 80 20",
    "web_link": "http://www.hauteserre.fr"
  },
  {
    "name": "Le Bistrot des Moines",
    "street": "Route Départementale 33",
    "city": " La Bussière-sur-Ouche",
    "postal_code": " 21360",
    "state": " FranceRoute Départementale 33",
    "experience": "Assez confortable. Nos établissements de charme.",
    "tel": "+33 3 80 49 02 29",
    "web_link": "http://www.abbayedelabussiere.fr"
  },
  {
    "name": "L'Arbre Vert",
    "street": "96 rue Principale",
    "city": " Berrwiller",
    "postal_code": " 68500",
    "state": " France96 rue Principale",
    "experience": "Confortable",
    "tel": "+33 3 89 76 73 19",
    "web_link": "http://www.restaurant-koenig.com"
  },
  {
    "name": "Auberge du Pont de la Zorn",
    "street": "2 rue de la République",
    "city": " Weyersheim",
    "postal_code": " 67720",
    "state": " France2 rue de la République",
    "experience": "Assez confortable",
    "tel": "+33 3 88 51 36 87",
    "web_link": "http://www.pontdelazorn.fr"
  },
  {
    "name": "La Belle Étoile",
    "street": "Le Bourg",
    "city": " La Roque-Gageac",
    "postal_code": " 24250",
    "state": " FranceLe Bourg",
    "experience": "Confortable",
    "tel": "+33 5 53 29 51 44",
    "web_link": "http://www.belleetoile.fr"
  },
  {
    "name": "Pottoka",
    "street": "4 rue de l'Exposition",
    "city": " Paris",
    "postal_code": " 75007",
    "state": " France4 rue de l'Exposition",
    "experience": "Assez confortable",
    "tel": "+33 1 45 51 88 38",
    "web_link": "http://www.pottoka.fr"
  },
  {
    "name": "L'Auberge des Bouviers",
    "street": "8 rue Montebello",
    "city": " Lectoure",
    "postal_code": " 32700",
    "state": " France8 rue Montebello",
    "experience": "Assez confortable",
    "tel": "+33 5 62 68 95 13",
    "web_link": "http://aubergedesbouviers.eatbu.com"
  },
  {
    "name": "La Pomme d'Or",
    "street": "Rue de la Panneterie",
    "city": " Sancerre",
    "postal_code": " 18300",
    "state": " FranceRue de la Panneterie",
    "experience": "Assez confortable",
    "tel": "+33 2 48 54 13 30",
    "web_link": "tel:+33 2 48 54 13 30"
  },
  {
    "name": "Au Relais des Ménétriers",
    "street": "10 avenue du Général-de-Gaulle",
    "city": " Ribeauvillé",
    "postal_code": " 68150",
    "state": " France10 avenue du Général-de-Gaulle",
    "experience": "Confortable",
    "tel": "+33 3 89 73 64 52",
    "web_link": "http://www.restaurant-menetriers.com"
  },
  {
    "name": "Le Mermoz",
    "street": "16 rue Jean-Mermoz",
    "city": " Paris",
    "postal_code": " 75008",
    "state": " France16 rue Jean-Mermoz",
    "experience": "Assez confortable",
    "tel": "+33 1 45 63 65 26",
    "web_link": "https://www.instagram.com/explore/tags/yesmichelinguide/"
  },
  {
    "name": "Auberge le Nézil",
    "street": "route de St-Nazaire",
    "city": " Saint-Lyphard",
    "postal_code": " 44410",
    "state": " Franceroute de St-Nazaire",
    "experience": "Assez confortable",
    "tel": "+33 2 40 91 41 41",
    "web_link": "http://www.aubergelenezil.fr"
  },
  {
    "name": "Le Relais des Salines",
    "street": "Port-des-Salines",
    "city": " Le Grand-Village-Plage",
    "postal_code": " 17370",
    "state": " FrancePort-des-Salines",
    "experience": "Assez confortable",
    "tel": "+33 5 46 75 82 42",
    "web_link": "http://www.lerelaisdessalines.com"
  },
  {
    "name": "La Plage de la Ribaudière",
    "street": "52  avenue de la Cèpe",
    "city": " La Tremblade",
    "postal_code": " 17390",
    "state": " France52  avenue de la Cèpe",
    "experience": "Assez confortable",
    "tel": "+33 5 46 36 60 01",
    "web_link": "https://www.instagram.com/explore/tags/yesmichelinguide/"
  },
  {
    "name": "L'Atelier d'Olivier Arlot",
    "street": "55 quai des Maisons-Blanches",
    "city": " Saint-Cyr-sur-Loire",
    "postal_code": " 37540",
    "state": " France55 quai des Maisons-Blanches",
    "experience": "Assez confortable",
    "tel": "+33 2 47 73 18 63",
    "web_link": "https://www.instagram.com/explore/tags/yesmichelinguide/"
  },
  {
    "name": "Le Vallon de Chérisy",
    "street": "12 route de Paris",
    "city": " Cherisy",
    "postal_code": " 28500",
    "state": " France12 route de Paris",
    "experience": "Confortable",
    "tel": "+33 2 37 43 70 08",
    "web_link": "tel:+33 2 37 43 70 08"
  },
  {
    "name": "Les Mets d'Adélaïde",
    "street": "28 avenue Georges-Alquier",
    "city": " Castres",
    "postal_code": " 81100",
    "state": " France28 avenue Georges-Alquier",
    "experience": "Confortable",
    "tel": "+33 5 63 35 78 42",
    "web_link": "https://www.instagram.com/explore/tags/yesmichelinguide/"
  },
  {
    "name": "L'Écureuil",
    "street": "18 rue St-Adjutor",
    "city": " Clermont-Ferrand",
    "postal_code": " 63000",
    "state": " France18 rue St-Adjutor",
    "experience": "Assez confortable",
    "tel": "+33 4 73 37 83 86",
    "web_link": "https://www.instagram.com/explore/tags/yesmichelinguide/"
  },
  {
    "name": "Biscotte",
    "street": "22 rue Desnouettes",
    "city": " Paris",
    "postal_code": " 75015",
    "state": " France22 rue Desnouettes",
    "experience": "Assez confortable",
    "tel": "+33 1 45 33 22 22",
    "web_link": "http://www.restaurant-biscotte.com"
  },
  {
    "name": "Anga",
    "street": "19 rue du Palais-des-Guilhem",
    "city": " Montpellier",
    "postal_code": " 34000",
    "state": " France19 rue du Palais-des-Guilhem",
    "experience": "Assez confortable",
    "tel": "+33 4 67 60 61 65",
    "web_link": "https://www.instagram.com/explore/tags/yesmichelinguide/"
  },
  {
    "name": "Les Canailles Pigalle",
    "street": "25 rue La Bruyère",
    "city": " Paris",
    "postal_code": " 75009",
    "state": " France25 rue La Bruyère",
    "experience": "Assez confortable",
    "tel": "+33 1 48 74 10 48",
    "web_link": "http://www.restaurantlescanailles.fr"
  },
  {
    "name": "Le Turenne",
    "street": "boulevard Saint-Rodolphe-de-Turenne",
    "city": " Beaulieu-sur-Dordogne",
    "postal_code": " 19120",
    "state": " Franceboulevard Saint-Rodolphe-de-Turenne",
    "experience": "Assez confortable",
    "tel": "+33 5 55 28 63 60",
    "web_link": "http://www.leturenne.com"
  },
  {
    "name": "Comme Chez Maman",
    "street": "5 rue des Moines",
    "city": " Paris",
    "postal_code": " 75017",
    "state": " France5 rue des Moines",
    "experience": "Assez confortable",
    "tel": "+33 1 42 28 89 53",
    "web_link": "tel:+33 1 42 28 89 53"
  },
  {
    "name": "Le Tire Bouchon",
    "street": "45 rue Jules-le-Grand",
    "city": " Lorient",
    "postal_code": " 56100",
    "state": " France45 rue Jules-le-Grand",
    "experience": "Confortable",
    "tel": "+33 2 97 84 71 92",
    "web_link": "http://www.restaurantalorient.com"
  },
  {
    "name": "Smørrebrød",
    "street": "10-12 rue des Archers",
    "city": " Clermont-Ferrand",
    "postal_code": " 63000",
    "state": " France10-12 rue des Archers",
    "experience": "Assez confortable",
    "tel": "+33 4 73 90 44 02",
    "web_link": "http://www.restaurant-smorrebrod.com"
  },
  {
    "name": "Sadarnac",
    "street": "17 rue Saint-Blaise",
    "city": " Paris",
    "postal_code": " 75020",
    "state": " France17 rue Saint-Blaise",
    "experience": "Assez confortable",
    "tel": "+33 1 72 60 72 06",
    "web_link": "http://www.restaurantsadarnac.fr"
  },
  {
    "name": "Jeu de Quilles",
    "street": "7 boulevard Tour-de-Ville",
    "city": " Cajarc",
    "postal_code": " 46160",
    "state": " France7 boulevard Tour-de-Ville",
    "experience": "Assez confortable",
    "tel": "+33 5 65 33 71 40",
    "web_link": "https://www.instagram.com/explore/tags/yesmichelinguide/"
  },
  {
    "name": "Le Bastion",
    "street": "50 boulevard de la Promenade",
    "city": " Lagrasse",
    "postal_code": " 11220",
    "state": " France50 boulevard de la Promenade",
    "experience": "Assez confortable",
    "tel": "+33 4 68 12 02 51",
    "web_link": "http://www.restaurant-bastion-lagrasse.fr"
  },
  {
    "name": "Quatre Saisons",
    "street": "10 rue Jean-Baptiste Champeil",
    "city": " Aurillac",
    "postal_code": " 15000",
    "state": " France10 rue Jean-Baptiste Champeil",
    "experience": "Assez confortable",
    "tel": "+33 4 71 64 85 38",
    "web_link": "http://www.quatresaisons.onlc.fr"
  },
  {
    "name": "Le Balcon",
    "street": "2 Grande-Rue",
    "city": " Combeaufontaine",
    "postal_code": " 70120",
    "state": " France2 Grande-Rue",
    "experience": "Confortable",
    "tel": "+33 3 84 92 11 13",
    "web_link": "http://www.le-balcon-70.fr"
  }
]